<?xml version='1.0' encoding='UTF-8'?>
<osm version='0.6' generator='pendientes-y-escaleras' upload='never'>
  <!-- frame anchor=19.3914395,-99.1858392 bearing=6.5 mirror=false -->
  <bounds minlat='19.3906731' minlon='-99.1865568' maxlat='19.3921219' maxlon='-99.1852230'/>
  <node id='14027750155' visible='true' lat='19.3915959' lon='-99.1859227' version='1' timestamp='2026-07-20T00:15:27Z' changeset='186032447' user='Campanita' uid='4431244'/>
  <node id='14027750154' visible='true' lat='19.3915692' lon='-99.1859261' version='1' timestamp='2026-07-20T00:15:27Z' changeset='186032447' user='Campanita' uid='4431244'>
    <tag k='advertising' v='poster_box'/>
    <tag k='man_made' v='advertising'/>
    <tag k='orientation' v='front'/>
    <tag k='sides' v='2'/>
    <tag k='support' v='street_furniture:transit_shelter'/>
    <tag k='visibility' v='street'/>
  </node>
  <node id='14027750147' visible='true' lat='19.3842570' lon='-99.1866602' version='1' timestamp='2026-07-20T00:15:27Z' changeset='186032447' user='Campanita' uid='4431244'>
    <tag k='bus' v='yes'/>
    <tag k='public_transport' v='stop_position'/>
    <tag k='trolleybus' v='yes'/>
  </node>
  <node id='13971955050' visible='true' lat='19.3900707' lon='-99.1821569' version='1' timestamp='2026-06-28T09:56:51Z' changeset='184735014' user='PPZ6' uid='20011809'>
    <tag k='highway' v='crossing'/>
  </node>
  <node id='13863621695' visible='true' lat='19.3629748' lon='-99.1891124' version='1' timestamp='2026-05-22T23:43:18Z' changeset='183045322' user='Rob333' uid='23334022'/>
  <node id='13738776796' visible='true' lat='19.3558970' lon='-99.1899191' version='1' timestamp='2026-04-17T23:28:56Z' changeset='181479891' user='Rob333' uid='23334022'/>
  <node id='13738776795' visible='true' lat='19.3573192' lon='-99.1897367' version='1' timestamp='2026-04-17T23:28:56Z' changeset='181479891' user='Rob333' uid='23334022'/>
  <node id='13738776794' visible='true' lat='19.3588654' lon='-99.1895918' version='1' timestamp='2026-04-17T23:28:56Z' changeset='181479891' user='Rob333' uid='23334022'/>
  <node id='13738776793' visible='true' lat='19.3604091' lon='-99.1893665' version='1' timestamp='2026-04-17T23:28:56Z' changeset='181479891' user='Rob333' uid='23334022'/>
  <node id='13683022552' visible='true' lat='19.4547409' lon='-99.1896122' version='1' timestamp='2026-03-26T20:09:13Z' changeset='180473618' user='1218150525De' uid='23981802'>
    <tag k='crossing' v='traffic_signals'/>
    <tag k='highway' v='crossing'/>
  </node>
  <node id='13271418496' visible='true' lat='19.3915581' lon='-99.1858147' version='2' timestamp='2026-07-20T00:15:27Z' changeset='186032447' user='Campanita' uid='4431244'>
    <tag k='public_transport' v='stop_position'/>
    <tag k='trolleybus' v='yes'/>
  </node>
  <node id='13271418495' visible='true' lat='19.3928050' lon='-99.1856697' version='1' timestamp='2025-10-31T01:45:38Z' changeset='174000806' user='Quixlian' uid='16289897'/>
  <node id='12671151152' visible='true' lat='19.4133806' lon='-99.1918730' version='1' timestamp='2025-03-17T01:55:28Z' changeset='163712096' user='Estudiantepromedio' uid='22638256'/>
  <node id='12127300295' visible='true' lat='19.3927303' lon='-99.1856770' version='3' timestamp='2026-07-20T00:15:27Z' changeset='186032447' user='Campanita' uid='4431244'>
    <tag k='public_transport' v='stop_position'/>
    <tag k='trolleybus' v='yes'/>
  </node>
  <node id='12127251777' visible='true' lat='19.3895731' lon='-99.1860503' version='1' timestamp='2024-08-22T11:12:19Z' changeset='155600028' user='Archi_Ma' uid='19688405'/>
  <node id='12126285436' visible='true' lat='19.3911383' lon='-99.1880129' version='1' timestamp='2024-08-22T08:58:51Z' changeset='155593956' user='Gorger' uid='20415418'/>
  <node id='11841847666' visible='true' lat='19.3904377' lon='-99.1858125' version='1' timestamp='2024-04-23T16:51:44Z' changeset='150405945' user='VLD062' uid='7676725'>
    <tag k='crossing' v='marked'/>
    <tag k='crossing:markings' v='zebra'/>
    <tag k='highway' v='crossing'/>
  </node>
  <node id='11841847665' visible='true' lat='19.3911591' lon='-99.1857355' version='1' timestamp='2024-04-23T16:51:44Z' changeset='150405945' user='VLD062' uid='7676725'>
    <tag k='crossing' v='unmarked'/>
    <tag k='crossing:markings' v='no'/>
    <tag k='highway' v='crossing'/>
  </node>
  <node id='11841847664' visible='true' lat='19.3912042' lon='-99.1870117' version='1' timestamp='2024-04-23T16:51:44Z' changeset='150405945' user='VLD062' uid='7676725'>
    <tag k='crossing' v='marked'/>
    <tag k='crossing:markings' v='zebra'/>
    <tag k='highway' v='crossing'/>
  </node>
  <node id='11841847661' visible='true' lat='19.3912053' lon='-99.1869721' version='1' timestamp='2024-04-23T16:51:44Z' changeset='150405945' user='VLD062' uid='7676725'/>
  <node id='11841847660' visible='true' lat='19.3912185' lon='-99.1858570' version='1' timestamp='2024-04-23T16:51:44Z' changeset='150405945' user='VLD062' uid='7676725'>
    <tag k='crossing' v='traffic_signals'/>
    <tag k='crossing:markings' v='zebra'/>
    <tag k='crossing:signals' v='yes'/>
    <tag k='highway' v='crossing'/>
  </node>
  <node id='11841847659' visible='true' lat='19.3912130' lon='-99.1864495' version='1' timestamp='2024-04-23T16:51:44Z' changeset='150405945' user='VLD062' uid='7676725'/>
  <node id='11841847658' visible='true' lat='19.3912202' lon='-99.1860110' version='1' timestamp='2024-04-23T16:51:44Z' changeset='150405945' user='VLD062' uid='7676725'/>
  <node id='11841847657' visible='true' lat='19.3912173' lon='-99.1857531' version='1' timestamp='2024-04-23T16:51:44Z' changeset='150405945' user='VLD062' uid='7676725'/>
  <node id='11841847656' visible='true' lat='19.3916319' lon='-99.1856783' version='1' timestamp='2024-04-23T16:51:44Z' changeset='150405945' user='VLD062' uid='7676725'/>
  <node id='11841847655' visible='true' lat='19.3909419' lon='-99.1857609' version='1' timestamp='2024-04-23T16:51:44Z' changeset='150405945' user='VLD062' uid='7676725'>
    <tag k='crossing' v='unmarked'/>
    <tag k='crossing:markings' v='no'/>
    <tag k='highway' v='crossing'/>
  </node>
  <node id='11841847654' visible='true' lat='19.3912160' lon='-99.1857280' version='1' timestamp='2024-04-23T16:51:44Z' changeset='150405945' user='VLD062' uid='7676725'/>
  <node id='11841847653' visible='true' lat='19.3911062' lon='-99.1857425' version='1' timestamp='2024-04-23T16:51:44Z' changeset='150405945' user='VLD062' uid='7676725'/>
  <node id='11841847644' visible='true' lat='19.3895927' lon='-99.1850594' version='1' timestamp='2024-04-23T16:51:44Z' changeset='150405945' user='VLD062' uid='7676725'>
    <tag k='crossing' v='marked'/>
    <tag k='crossing:markings' v='zebra'/>
    <tag k='highway' v='crossing'/>
  </node>
  <node id='11841847638' visible='true' lat='19.3890413' lon='-99.1851243' version='1' timestamp='2024-04-23T16:51:44Z' changeset='150405945' user='VLD062' uid='7676725'>
    <tag k='crossing' v='marked'/>
    <tag k='crossing:markings' v='zebra'/>
    <tag k='highway' v='crossing'/>
  </node>
  <node id='11515613263' visible='true' lat='19.3907001' lon='-99.1859186' version='1' timestamp='2024-01-14T06:46:57Z' changeset='146234800' user='Quixlian' uid='16289897'/>
  <node id='11023055665' visible='true' lat='19.3617393' lon='-99.1892470' version='1' timestamp='2023-07-03T16:55:33Z' changeset='138072955' user='ZV1' uid='19691459'/>
  <node id='11023055664' visible='true' lat='19.3619158' lon='-99.1892278' version='1' timestamp='2023-07-03T16:55:33Z' changeset='138072955' user='ZV1' uid='19691459'/>
  <node id='8596923972' visible='true' lat='19.3909294' lon='-99.1855262' version='1' timestamp='2021-04-05T22:54:45Z' changeset='102359691' user='sasQuach' uid='9917894'/>
  <node id='8596923971' visible='true' lat='19.3909694' lon='-99.1854761' version='1' timestamp='2021-04-05T22:54:45Z' changeset='102359691' user='sasQuach' uid='9917894'/>
  <node id='8596923970' visible='true' lat='19.3909483' lon='-99.1854845' version='1' timestamp='2021-04-05T22:54:45Z' changeset='102359691' user='sasQuach' uid='9917894'/>
  <node id='8288489742' visible='true' lat='19.3910448' lon='-99.1854676' version='1' timestamp='2021-01-04T05:48:32Z' changeset='96879677' user='tangomapper' uid='8710070'/>
  <node id='8288470906' visible='true' lat='19.3909488' lon='-99.1858895' version='2' timestamp='2023-07-22T07:23:24Z' changeset='138840523' user='Quixlian' uid='16289897'/>
  <node id='8288470905' visible='true' lat='19.3909338' lon='-99.1855027' version='2' timestamp='2021-04-05T22:54:45Z' changeset='102359691' user='sasQuach' uid='9917894'/>
  <node id='8288470904' visible='true' lat='19.3911646' lon='-99.1854540' version='1' timestamp='2021-01-04T05:47:34Z' changeset='96879628' user='tangomapper' uid='8710070'/>
  <node id='8272873655' visible='true' lat='19.3954427' lon='-99.1865188' version='2' timestamp='2021-04-05T23:01:28Z' changeset='102359847' user='sasQuach' uid='9917894'/>
  <node id='8226555237' visible='true' lat='19.3912004' lon='-99.1833891' version='1' timestamp='2020-12-14T06:08:27Z' changeset='95785344' user='LacDeYate' uid='10409685'/>
  <node id='8133094266' visible='true' lat='19.3961335' lon='-99.1864440' version='1' timestamp='2020-11-18T04:13:29Z' changeset='94323464' user='Neshaminy' uid='10074558'/>
  <node id='7943211865' visible='true' lat='19.3911413' lon='-99.1889383' version='1' timestamp='2020-09-25T20:02:22Z' changeset='91529928' user='ProfessorLupin' uid='10456431'/>
  <node id='7934797100' visible='true' lat='19.3954964' lon='-99.1865100' version='2' timestamp='2021-04-05T23:01:28Z' changeset='102359847' user='sasQuach' uid='9917894'/>
  <node id='7887774995' visible='true' lat='19.4002200' lon='-99.1856260' version='1' timestamp='2020-09-08T16:32:28Z' changeset='90597542' user='DRM150' uid='10627270'/>
  <node id='6298545886' visible='true' lat='19.3993297' lon='-99.1850320' version='1' timestamp='2019-02-24T05:53:43Z' changeset='67508488' user='mdelatorre' uid='84642'/>
  <node id='4802953131' visible='true' lat='19.3998759' lon='-99.1853408' version='1' timestamp='2017-04-19T05:25:09Z' changeset='47925448' user='Abbendymion' uid='2191238'/>
  <node id='4802953130' visible='true' lat='19.3996196' lon='-99.1851718' version='1' timestamp='2017-04-19T05:25:09Z' changeset='47925448' user='Abbendymion' uid='2191238'/>
  <node id='4802953128' visible='true' lat='19.4005008' lon='-99.1858286' version='1' timestamp='2017-04-19T05:25:09Z' changeset='47925448' user='Abbendymion' uid='2191238'/>
  <node id='4802953126' visible='true' lat='19.4034372' lon='-99.1875115' version='1' timestamp='2017-04-19T05:25:08Z' changeset='47925448' user='Abbendymion' uid='2191238'/>
  <node id='4802953125' visible='true' lat='19.4079297' lon='-99.1896938' version='1' timestamp='2017-04-19T05:25:08Z' changeset='47925448' user='Abbendymion' uid='2191238'/>
  <node id='4802953124' visible='true' lat='19.4100674' lon='-99.1906976' version='1' timestamp='2017-04-19T05:25:08Z' changeset='47925448' user='Abbendymion' uid='2191238'/>
  <node id='4802953123' visible='true' lat='19.4131949' lon='-99.1918318' version='1' timestamp='2017-04-19T05:25:08Z' changeset='47925448' user='Abbendymion' uid='2191238'/>
  <node id='4802953122' visible='true' lat='19.4127391' lon='-99.1917205' version='1' timestamp='2017-04-19T05:25:08Z' changeset='47925448' user='Abbendymion' uid='2191238'/>
  <node id='4802953121' visible='true' lat='19.4135748' lon='-99.1919162' version='1' timestamp='2017-04-19T05:25:08Z' changeset='47925448' user='Abbendymion' uid='2191238'/>
  <node id='4802953120' visible='true' lat='19.4154822' lon='-99.1923266' version='1' timestamp='2017-04-19T05:25:08Z' changeset='47925448' user='Abbendymion' uid='2191238'/>
  <node id='4802953119' visible='true' lat='19.4195436' lon='-99.1929614' version='1' timestamp='2017-04-19T05:25:08Z' changeset='47925448' user='Abbendymion' uid='2191238'/>
  <node id='4802953118' visible='true' lat='19.4191296' lon='-99.1929518' version='1' timestamp='2017-04-19T05:25:08Z' changeset='47925448' user='Abbendymion' uid='2191238'/>
  <node id='4802953117' visible='true' lat='19.4184497' lon='-99.1928932' version='1' timestamp='2017-04-19T05:25:08Z' changeset='47925448' user='Abbendymion' uid='2191238'/>
  <node id='4802953116' visible='true' lat='19.4201075' lon='-99.1929136' version='1' timestamp='2017-04-19T05:25:08Z' changeset='47925448' user='Abbendymion' uid='2191238'/>
  <node id='4802953115' visible='true' lat='19.4213722' lon='-99.1927433' version='1' timestamp='2017-04-19T05:25:08Z' changeset='47925448' user='Abbendymion' uid='2191238'/>
  <node id='4802953114' visible='true' lat='19.4277748' lon='-99.1917299' version='1' timestamp='2017-04-19T05:25:08Z' changeset='47925448' user='Abbendymion' uid='2191238'/>
  <node id='4802953113' visible='true' lat='19.4380825' lon='-99.1904829' version='1' timestamp='2017-04-19T05:25:08Z' changeset='47925448' user='Abbendymion' uid='2191238'/>
  <node id='4802953112' visible='true' lat='19.4423717' lon='-99.1918670' version='1' timestamp='2017-04-19T05:25:08Z' changeset='47925448' user='Abbendymion' uid='2191238'/>
  <node id='4802953111' visible='true' lat='19.4428276' lon='-99.1920499' version='1' timestamp='2017-04-19T05:25:08Z' changeset='47925448' user='Abbendymion' uid='2191238'/>
  <node id='4802953110' visible='true' lat='19.4496015' lon='-99.1909740' version='1' timestamp='2017-04-19T05:25:08Z' changeset='47925448' user='Abbendymion' uid='2191238'/>
  <node id='4802953109' visible='true' lat='19.4553955' lon='-99.1894339' version='1' timestamp='2017-04-19T05:25:08Z' changeset='47925448' user='Abbendymion' uid='2191238'/>
  <node id='4802953108' visible='true' lat='19.4557363' lon='-99.1892699' version='1' timestamp='2017-04-19T05:25:08Z' changeset='47925448' user='Abbendymion' uid='2191238'/>
  <node id='4802953107' visible='true' lat='19.4559336' lon='-99.1891492' version='1' timestamp='2017-04-19T05:25:08Z' changeset='47925448' user='Abbendymion' uid='2191238'/>
  <node id='4802953106' visible='true' lat='19.4561689' lon='-99.1888857' version='1' timestamp='2017-04-19T05:25:08Z' changeset='47925448' user='Abbendymion' uid='2191238'/>
  <node id='4802953105' visible='true' lat='19.4563412' lon='-99.1886377' version='1' timestamp='2017-04-19T05:25:08Z' changeset='47925448' user='Abbendymion' uid='2191238'/>
  <node id='4802953104' visible='true' lat='19.4605754' lon='-99.1875560' version='1' timestamp='2017-04-19T05:25:08Z' changeset='47925448' user='Abbendymion' uid='2191238'/>
  <node id='4802953103' visible='true' lat='19.4604153' lon='-99.1872570' version='1' timestamp='2017-04-19T05:25:08Z' changeset='47925448' user='Abbendymion' uid='2191238'/>
  <node id='4802953102' visible='true' lat='19.4569936' lon='-99.1875168' version='1' timestamp='2017-04-19T05:25:08Z' changeset='47925448' user='Abbendymion' uid='2191238'/>
  <node id='4802953101' visible='true' lat='19.4568116' lon='-99.1877000' version='1' timestamp='2017-04-19T05:25:08Z' changeset='47925448' user='Abbendymion' uid='2191238'/>
  <node id='4802953100' visible='true' lat='19.4566848' lon='-99.1878932' version='1' timestamp='2017-04-19T05:25:08Z' changeset='47925448' user='Abbendymion' uid='2191238'/>
  <node id='4802953099' visible='true' lat='19.4540261' lon='-99.1897945' version='1' timestamp='2017-04-19T05:25:08Z' changeset='47925448' user='Abbendymion' uid='2191238'/>
  <node id='4802953098' visible='true' lat='19.4531719' lon='-99.1900669' version='2' timestamp='2018-04-27T15:43:14Z' changeset='58479802' user='algarinr' uid='1674230'/>
  <node id='4802953097' visible='true' lat='19.4549344' lon='-99.1895629' version='1' timestamp='2017-04-19T05:25:08Z' changeset='47925448' user='Abbendymion' uid='2191238'/>
  <node id='4802953063' visible='true' lat='19.4572097' lon='-99.1874215' version='1' timestamp='2017-04-19T05:25:08Z' changeset='47925448' user='Abbendymion' uid='2191238'/>
  <node id='4802953062' visible='true' lat='19.4613209' lon='-99.1897706' version='1' timestamp='2017-04-19T05:25:08Z' changeset='47925448' user='Abbendymion' uid='2191238'/>
  <node id='4802953061' visible='true' lat='19.4609469' lon='-99.1889581' version='1' timestamp='2017-04-19T05:25:08Z' changeset='47925448' user='Abbendymion' uid='2191238'/>
  <node id='4802953060' visible='true' lat='19.4607376' lon='-99.1881595' version='1' timestamp='2017-04-19T05:25:08Z' changeset='47925448' user='Abbendymion' uid='2191238'/>
  <node id='4802953059' visible='true' lat='19.4602439' lon='-99.1870762' version='1' timestamp='2017-04-19T05:25:08Z' changeset='47925448' user='Abbendymion' uid='2191238'/>
  <node id='4802953058' visible='true' lat='19.4600284' lon='-99.1869496' version='1' timestamp='2017-04-19T05:25:08Z' changeset='47925448' user='Abbendymion' uid='2191238'/>
  <node id='4802953057' visible='true' lat='19.4598039' lon='-99.1869060' version='1' timestamp='2017-04-19T05:25:08Z' changeset='47925448' user='Abbendymion' uid='2191238'/>
  <node id='4802953056' visible='true' lat='19.4594844' lon='-99.1869047' version='1' timestamp='2017-04-19T05:25:08Z' changeset='47925448' user='Abbendymion' uid='2191238'/>
  <node id='4802953055' visible='true' lat='19.4610685' lon='-99.1893416' version='1' timestamp='2017-04-19T05:25:07Z' changeset='47925448' user='Abbendymion' uid='2191238'/>
  <node id='4802953054' visible='true' lat='19.4611693' lon='-99.1895655' version='1' timestamp='2017-04-19T05:25:07Z' changeset='47925448' user='Abbendymion' uid='2191238'/>
  <node id='4802953053' visible='true' lat='19.4615147' lon='-99.1899374' version='1' timestamp='2017-04-19T05:25:07Z' changeset='47925448' user='Abbendymion' uid='2191238'/>
  <node id='4802953052' visible='true' lat='19.4616864' lon='-99.1900745' version='1' timestamp='2017-04-19T05:25:07Z' changeset='47925448' user='Abbendymion' uid='2191238'/>
  <node id='4802953051' visible='true' lat='19.4619584' lon='-99.1902083' version='1' timestamp='2017-04-19T05:25:07Z' changeset='47925448' user='Abbendymion' uid='2191238'/>
  <node id='4802953050' visible='true' lat='19.4623302' lon='-99.1903265' version='1' timestamp='2017-04-19T05:25:07Z' changeset='47925448' user='Abbendymion' uid='2191238'/>
  <node id='4802953049' visible='true' lat='19.4626929' lon='-99.1904288' version='1' timestamp='2017-04-19T05:25:07Z' changeset='47925448' user='Abbendymion' uid='2191238'/>
  <node id='4802953048' visible='true' lat='19.4635223' lon='-99.1905817' version='1' timestamp='2017-04-19T05:25:07Z' changeset='47925448' user='Abbendymion' uid='2191238'/>
  <node id='4802953047' visible='true' lat='19.4641060' lon='-99.1906766' version='1' timestamp='2017-04-19T05:25:07Z' changeset='47925448' user='Abbendymion' uid='2191238'/>
  <node id='4802953046' visible='true' lat='19.4630257' lon='-99.1904935' version='1' timestamp='2017-04-19T05:25:07Z' changeset='47925448' user='Abbendymion' uid='2191238'/>
  <node id='4802953045' visible='true' lat='19.4645547' lon='-99.1907086' version='1' timestamp='2017-04-19T05:25:07Z' changeset='47925448' user='Abbendymion' uid='2191238'/>
  <node id='4802953044' visible='true' lat='19.4648057' lon='-99.1907012' version='1' timestamp='2017-04-19T05:25:07Z' changeset='47925448' user='Abbendymion' uid='2191238'/>
  <node id='4802953043' visible='true' lat='19.4592071' lon='-99.1869427' version='1' timestamp='2017-04-19T05:25:07Z' changeset='47925448' user='Abbendymion' uid='2191238'/>
  <node id='4802953041' visible='true' lat='19.4730349' lon='-99.1903130' version='1' timestamp='2017-04-19T05:25:07Z' changeset='47925448' user='Abbendymion' uid='2191238'/>
  <node id='4802953040' visible='true' lat='19.4855252' lon='-99.1897584' version='1' timestamp='2017-04-19T05:25:07Z' changeset='47925448' user='Abbendymion' uid='2191238'/>
  <node id='4802953039' visible='true' lat='19.4857140' lon='-99.1898634' version='1' timestamp='2017-04-19T05:25:07Z' changeset='47925448' user='Abbendymion' uid='2191238'/>
  <node id='4802953038' visible='true' lat='19.4876122' lon='-99.1920167' version='1' timestamp='2017-04-19T05:25:07Z' changeset='47925448' user='Abbendymion' uid='2191238'/>
  <node id='4802953037' visible='true' lat='19.4895696' lon='-99.1943253' version='1' timestamp='2017-04-19T05:25:07Z' changeset='47925448' user='Abbendymion' uid='2191238'/>
  <node id='4802953036' visible='true' lat='19.4899147' lon='-99.1946829' version='1' timestamp='2017-04-19T05:25:07Z' changeset='47925448' user='Abbendymion' uid='2191238'/>
  <node id='4802953035' visible='true' lat='19.4939403' lon='-99.1977862' version='1' timestamp='2017-04-19T05:25:07Z' changeset='47925448' user='Abbendymion' uid='2191238'/>
  <node id='4802953034' visible='true' lat='19.4954945' lon='-99.1987689' version='1' timestamp='2017-04-19T05:25:07Z' changeset='47925448' user='Abbendymion' uid='2191238'/>
  <node id='4802953031' visible='true' lat='19.4964231' lon='-99.1994025' version='1' timestamp='2017-04-19T05:25:07Z' changeset='47925448' user='Abbendymion' uid='2191238'/>
  <node id='4802953030' visible='true' lat='19.4968214' lon='-99.1997358' version='1' timestamp='2017-04-19T05:25:07Z' changeset='47925448' user='Abbendymion' uid='2191238'/>
  <node id='4802953029' visible='true' lat='19.4971565' lon='-99.2000611' version='1' timestamp='2017-04-19T05:25:07Z' changeset='47925448' user='Abbendymion' uid='2191238'/>
  <node id='4802953028' visible='true' lat='19.4991637' lon='-99.2018787' version='1' timestamp='2017-04-19T05:25:07Z' changeset='47925448' user='Abbendymion' uid='2191238'/>
  <node id='4611971082' visible='true' lat='19.3923536' lon='-99.1868693' version='4' timestamp='2021-04-05T23:01:28Z' changeset='102359847' user='sasQuach' uid='9917894'/>
  <node id='3761143341' visible='true' lat='19.3914749' lon='-99.1862000' action='modify' version='5' timestamp='2020-02-19T01:02:05Z' changeset='81193371' user='CENTSOARER' uid='232801'>
    <tag k='name' v='Metro San Pedro De Los Pinos'/>
    <tag k='railway' v='subway_entrance'/>
    <tag k='wheelchair' v='no'/>
    <tag k='entrance' v='yes'/>
    <tag k='level' v='0'/>
    <tag k='description' v='Acceso poniente'/>
    <tag k='note:stop_id' v='L7-SANPEDRODELOSPINOS-E-01'/>
    <tag k='note:miro_id' v='3458764655659672650'/>
  </node>
  <node id='3649280622' visible='true' lat='19.4581164' lon='-99.1872080' version='9' timestamp='2023-08-31T09:53:28Z' changeset='140626610' user='Руслан Т' uid='12947635'>
    <tag k='electrified' v='rail'/>
    <tag k='frequency' v='0'/>
    <tag k='gauge' v='1435'/>
    <tag k='name' v='Tacuba'/>
    <tag k='public_transport' v='stop_position'/>
    <tag k='railway' v='stop'/>
    <tag k='service' v='yard'/>
    <tag k='subway' v='yes'/>
    <tag k='voltage' v='1500'/>
  </node>
  <node id='3035586246' visible='true' lat='19.4013333' lon='-99.1862728' version='2' timestamp='2017-04-19T05:25:11Z' changeset='47925448' user='Abbendymion' uid='2191238'/>
  <node id='3035570524' visible='true' lat='19.4234841' lon='-99.1925110' version='2' timestamp='2017-04-19T05:25:11Z' changeset='47925448' user='Abbendymion' uid='2191238'/>
  <node id='2913765505' visible='true' lat='19.4677659' lon='-99.1905692' version='2' timestamp='2017-04-19T05:25:09Z' changeset='47925448' user='Abbendymion' uid='2191238'/>
  <node id='1480964132' visible='true' lat='19.4508918' lon='-99.1906558' version='1' timestamp='2011-10-26T07:08:25Z' changeset='9657801' user='ferval' uid='298530'/>
  <node id='1434456410' visible='true' lat='19.3707846' lon='-99.1882010' version='2' timestamp='2019-02-24T05:53:49Z' changeset='67508488' user='mdelatorre' uid='84642'/>
  <node id='1434456404' visible='true' lat='19.3694157' lon='-99.1883546' version='2' timestamp='2019-02-24T05:53:49Z' changeset='67508488' user='mdelatorre' uid='84642'/>
  <node id='1434456386' visible='true' lat='19.3668530' lon='-99.1886900' version='1' timestamp='2011-09-16T15:18:10Z' changeset='9316932' user='mdelatorre' uid='84642'/>
  <node id='1395878686' visible='true' lat='19.3988751' lon='-99.1851591' version='1' timestamp='2011-08-12T10:06:44Z' changeset='8994141' user='ferval' uid='298530'/>
  <node id='681454741' visible='true' lat='19.3915073' lon='-99.1855297' version='12' timestamp='2026-01-29T06:54:48Z' changeset='177833021' user='diegouuuuuu' uid='23764834'>
    <tag k='electrified' v='rail'/>
    <tag k='frequency' v='0'/>
    <tag k='gauge' v='1435'/>
    <tag k='name' v='San Pedro de los Pinos'/>
    <tag k='network' v='STC Metro'/>
    <tag k='opening_hours' v='Mo-Fr 05:00-24:00; Sa 06:00-24:00; Su 07:00-24:00'/>
    <tag k='operator' v='Sistema de Transporte Colectivo'/>
    <tag k='public_transport' v='station'/>
    <tag k='railway' v='station'/>
    <tag k='service' v='yard'/>
    <tag k='station' v='subway'/>
    <tag k='subway' v='yes'/>
    <tag k='voltage' v='1500'/>
    <tag k='wikidata' v='Q5841189'/>
    <tag k='wikimedia_commons' v='Category:Estación San Pedro de los Pinos (Metro de México)'/>
    <tag k='wikipedia' v='es:San Pedro de los Pinos (estación)'/>
  </node>
  <node id='681448501' visible='true' lat='19.4449744' lon='-99.1917953' version='11' timestamp='2025-09-21T08:59:24Z' changeset='172235217' user='tg4567' uid='12500589'>
    <tag k='electrified' v='rail'/>
    <tag k='frequency' v='0'/>
    <tag k='gauge' v='1435'/>
    <tag k='name' v='San Joaquín'/>
    <tag k='network' v='STC Metro'/>
    <tag k='opening_hours' v='Mo-Fr 05:00-24:00; Sa 06:00-24:00; Su 07:00-24:00'/>
    <tag k='operator' v='Sistema de Transporte Colectivo'/>
    <tag k='public_transport' v='station'/>
    <tag k='railway' v='station'/>
    <tag k='service' v='yard'/>
    <tag k='station' v='subway'/>
    <tag k='subway' v='yes'/>
    <tag k='voltage' v='1500'/>
    <tag k='wikidata' v='Q6824700'/>
    <tag k='wikimedia_commons' v='Category:Estación San Joaquín (Metro de México)'/>
    <tag k='wikipedia' v='es:San Joaquín (estación del Metro de Ciudad de México)'/>
  </node>
  <node id='553409514' visible='true' lat='19.5023053' lon='-99.2009407' version='4' timestamp='2025-08-26T14:55:11Z' changeset='171035022' user='Claudius Henrichs' uid='18069'/>
  <node id='474698560' visible='true' lat='19.3991324' lon='-99.1849722' version='5' timestamp='2025-06-13T18:35:09Z' changeset='167587589' user='Quixlian' uid='16289897'/>
  <node id='434303473' visible='true' lat='19.3722769' lon='-99.1880014' version='4' timestamp='2019-02-24T05:53:48Z' changeset='67508488' user='mdelatorre' uid='84642'/>
  <node id='392066397' visible='true' lat='19.4503853' lon='-99.1907823' version='6' timestamp='2017-04-19T05:25:10Z' changeset='47925448' user='Abbendymion' uid='2191238'/>
  <node id='392066396' visible='true' lat='19.4485114' lon='-99.1911972' version='4' timestamp='2011-10-26T07:09:01Z' changeset='9657801' user='ferval' uid='298530'/>
  <node id='392066395' visible='true' lat='19.4476287' lon='-99.1913619' version='2' timestamp='2011-10-26T07:09:01Z' changeset='9657801' user='ferval' uid='298530'/>
  <node id='380224303' visible='true' lat='19.4465496' lon='-99.1915549' version='2' timestamp='2011-10-26T07:09:01Z' changeset='9657801' user='ferval' uid='298530'/>
  <node id='351114288' visible='true' lat='19.4997171' lon='-99.2018191' version='5' timestamp='2017-04-19T05:25:09Z' changeset='47925448' user='Abbendymion' uid='2191238'/>
  <node id='351114287' visible='true' lat='19.4994598' lon='-99.2018760' version='5' timestamp='2017-04-19T05:25:09Z' changeset='47925448' user='Abbendymion' uid='2191238'/>
  <node id='351114286' visible='true' lat='19.4988686' lon='-99.2017862' version='5' timestamp='2017-04-19T05:25:09Z' changeset='47925448' user='Abbendymion' uid='2191238'/>
  <node id='351114285' visible='true' lat='19.4986355' lon='-99.2016120' version='5' timestamp='2017-04-19T05:25:09Z' changeset='47925448' user='Abbendymion' uid='2191238'/>
  <node id='344722039' visible='true' lat='19.3756500' lon='-99.1876933' version='19' timestamp='2017-04-19T05:25:11Z' changeset='47925448' user='Abbendymion' uid='2191238'/>
  <node id='308564189' visible='true' lat='19.4981844' lon='-99.2011366' version='19' timestamp='2009-03-23T18:42:30Z' changeset='850817' user='macgirl' uid='101199'/>
  <node id='308564188' visible='true' lat='19.4959999' lon='-99.1990767' version='18' timestamp='2009-03-23T18:42:30Z' changeset='850817' user='macgirl' uid='101199'/>
  <node id='308564187' visible='true' lat='19.4924218' lon='-99.1966784' version='19' timestamp='2017-04-19T05:25:09Z' changeset='47925448' user='Abbendymion' uid='2191238'/>
  <node id='308564186' visible='true' lat='19.4906797' lon='-99.1953153' version='31' timestamp='2026-06-03T18:12:08Z' changeset='183607957' user='BRTSZN' uid='11667108'>
    <tag k='electrified' v='rail'/>
    <tag k='frequency' v='0'/>
    <tag k='gauge' v='1435'/>
    <tag k='name' v='Aquiles Serdán'/>
    <tag k='network' v='STC Metro'/>
    <tag k='opening_hours' v='Mo-Fr 05:00-24:00; Sa 06:00-24:00; Su 07:00-24:00'/>
    <tag k='operator' v='Sistema de Transporte Colectivo'/>
    <tag k='public_transport' v='station'/>
    <tag k='railway' v='station'/>
    <tag k='service' v='yard'/>
    <tag k='station' v='subway'/>
    <tag k='subway' v='yes'/>
    <tag k='train' v='yes'/>
    <tag k='voltage' v='1500'/>
    <tag k='wikidata' v='Q6824477'/>
    <tag k='wikimedia_commons' v='Category:Estación Aquiles Serdán (Metro de México)'/>
    <tag k='wikipedia' v='es:Aquiles Serdán (estación)'/>
  </node>
  <node id='308564185' visible='true' lat='19.4858746' lon='-99.1899939' version='19' timestamp='2017-04-19T05:25:09Z' changeset='47925448' user='Abbendymion' uid='2191238'/>
  <node id='308564184' visible='true' lat='19.4853297' lon='-99.1897034' version='19' timestamp='2017-04-19T05:25:09Z' changeset='47925448' user='Abbendymion' uid='2191238'/>
  <node id='308564183' visible='true' lat='19.4851424' lon='-99.1896753' version='19' timestamp='2017-04-19T05:25:09Z' changeset='47925448' user='Abbendymion' uid='2191238'/>
  <node id='308564180' visible='true' lat='19.4835441' lon='-99.1897771' version='19' timestamp='2017-04-19T05:25:09Z' changeset='47925448' user='Abbendymion' uid='2191238'/>
  <node id='308564179' visible='true' lat='19.4818940' lon='-99.1899055' version='19' timestamp='2017-04-19T05:25:09Z' changeset='47925448' user='Abbendymion' uid='2191238'/>
  <node id='308564178' visible='true' lat='19.4791036' lon='-99.1900262' version='31' timestamp='2025-09-21T08:59:24Z' changeset='172235217' user='tg4567' uid='12500589'>
    <tag k='electrified' v='rail'/>
    <tag k='frequency' v='0'/>
    <tag k='gauge' v='1435'/>
    <tag k='name' v='Camarones'/>
    <tag k='network' v='STC Metro'/>
    <tag k='opening_hours' v='Mo-Fr 05:00-24:00; Sa 06:00-24:00; Su 07:00-24:00'/>
    <tag k='operator' v='Sistema de Transporte Colectivo'/>
    <tag k='public_transport' v='station'/>
    <tag k='railway' v='station'/>
    <tag k='service' v='yard'/>
    <tag k='station' v='subway'/>
    <tag k='subway' v='yes'/>
    <tag k='train' v='yes'/>
    <tag k='voltage' v='1500'/>
    <tag k='wikidata' v='Q6824514'/>
    <tag k='wikimedia_commons' v='Category:Estación Camarones (Metro de México)'/>
    <tag k='wikipedia' v='es:Camarones (estación)'/>
  </node>
  <node id='308562800' visible='true' lat='19.4696029' lon='-99.1904631' version='14' timestamp='2025-09-21T08:59:24Z' changeset='172235217' user='tg4567' uid='12500589'>
    <tag k='electrified' v='rail'/>
    <tag k='frequency' v='0'/>
    <tag k='gauge' v='1435'/>
    <tag k='name' v='Refinería'/>
    <tag k='network' v='STC Metro'/>
    <tag k='opening_hours' v='Mo-Fr 05:00-24:00; Sa 06:00-24:00; Su 07:00-24:00'/>
    <tag k='operator' v='Sistema de Transporte Colectivo'/>
    <tag k='public_transport' v='station'/>
    <tag k='railway' v='station'/>
    <tag k='service' v='yard'/>
    <tag k='station' v='subway'/>
    <tag k='subway' v='yes'/>
    <tag k='voltage' v='1500'/>
    <tag k='wikidata' v='Q9067431'/>
    <tag k='wikimedia_commons' v='Category:Estación Refinería (Metro de México)'/>
    <tag k='wikipedia' v='es:Refinería (estación)'/>
  </node>
  <node id='308562279' visible='true' lat='19.4565643' lon='-99.1881631' version='22' timestamp='2017-04-19T05:25:10Z' changeset='47925448' user='Abbendymion' uid='2191238'/>
  <node id='308561814' visible='true' lat='19.4430637' lon='-99.1920503' version='22' timestamp='2011-10-26T07:09:00Z' changeset='9657801' user='ferval' uid='298530'/>
  <node id='308561813' visible='true' lat='19.4425840' lon='-99.1920007' version='23' timestamp='2017-04-19T05:25:10Z' changeset='47925448' user='Abbendymion' uid='2191238'/>
  <node id='308561810' visible='true' lat='19.4408593' lon='-99.1907060' version='22' timestamp='2017-04-19T05:25:10Z' changeset='47925448' user='Abbendymion' uid='2191238'/>
  <node id='308561809' visible='true' lat='19.4403812' lon='-99.1904078' version='21' timestamp='2009-03-23T18:42:28Z' changeset='850817' user='macgirl' uid='101199'/>
  <node id='308561808' visible='true' lat='19.4399142' lon='-99.1903559' version='23' timestamp='2017-04-19T05:25:10Z' changeset='47925448' user='Abbendymion' uid='2191238'/>
  <node id='308561120' visible='true' lat='19.4335300' lon='-99.1909150' version='12' timestamp='2025-09-21T08:59:24Z' changeset='172235217' user='tg4567' uid='12500589'>
    <tag k='electrified' v='rail'/>
    <tag k='frequency' v='0'/>
    <tag k='gauge' v='1435'/>
    <tag k='name' v='Polanco'/>
    <tag k='network' v='STC Metro'/>
    <tag k='opening_hours' v='Mo-Fr 05:00-24:00; Sa 06:00-24:00; Su 07:00-24:00'/>
    <tag k='operator' v='Sistema de Transporte Colectivo'/>
    <tag k='public_transport' v='station'/>
    <tag k='railway' v='station'/>
    <tag k='service' v='yard'/>
    <tag k='station' v='subway'/>
    <tag k='subway' v='yes'/>
    <tag k='train' v='yes'/>
    <tag k='voltage' v='1500'/>
    <tag k='wikidata' v='Q6824672'/>
    <tag k='wikimedia_commons' v='Category:Estación Polanco (Metro de México)'/>
    <tag k='wikipedia' v='es:Polanco (estación, Metro de la Ciudad de México)'/>
  </node>
  <node id='308561119' visible='true' lat='19.4249847' lon='-99.1922567' version='12' timestamp='2025-09-21T08:59:24Z' changeset='172235217' user='tg4567' uid='12500589'>
    <tag k='electrified' v='rail'/>
    <tag k='frequency' v='0'/>
    <tag k='gauge' v='1435'/>
    <tag k='name' v='Auditorio'/>
    <tag k='network' v='STC Metro'/>
    <tag k='network:wikidata' v='Q735042'/>
    <tag k='opening_hours' v='Mo-Fr 05:00-24:00; Sa 06:00-24:00; Su 07:00-24:00'/>
    <tag k='operator' v='Sistema de Transporte Colectivo'/>
    <tag k='public_transport' v='station'/>
    <tag k='railway' v='station'/>
    <tag k='service' v='yard'/>
    <tag k='station' v='subway'/>
    <tag k='subway' v='yes'/>
    <tag k='voltage' v='1500'/>
    <tag k='wikidata' v='Q6824492'/>
    <tag k='wikimedia_commons' v='Category:Estación Auditorio (Metro de México)'/>
    <tag k='wikipedia' v='es:Auditorio (estación)'/>
  </node>
  <node id='308561116' visible='true' lat='19.4221554' lon='-99.1926649' version='23' timestamp='2017-04-19T05:25:11Z' changeset='47925448' user='Abbendymion' uid='2191238'/>
  <node id='308561115' visible='true' lat='19.4169446' lon='-99.1926116' version='24' timestamp='2017-04-19T05:25:11Z' changeset='47925448' user='Abbendymion' uid='2191238'/>
  <node id='308557541' visible='true' lat='19.4117501' lon='-99.1913845' version='13' timestamp='2026-07-21T18:25:22Z' changeset='186133031' user='rimugu' uid='1910727'>
    <tag k='electrified' v='rail'/>
    <tag k='frequency' v='0'/>
    <tag k='gauge' v='1435'/>
    <tag k='name' v='Constituyentes'/>
    <tag k='name:es' v='Constituyentes'/>
    <tag k='name:ja' v='コンスティトゥジェンテス'/>
    <tag k='network' v='STC Metro'/>
    <tag k='opening_hours' v='Mo-Fr 05:00-24:00; Sa 06:00-24:00; Su 07:00-24:00'/>
    <tag k='operator' v='Sistema de Transporte Colectivo'/>
    <tag k='public_transport' v='station'/>
    <tag k='railway' v='station'/>
    <tag k='service' v='yard'/>
    <tag k='station' v='subway'/>
    <tag k='subway' v='yes'/>
    <tag k='voltage' v='1500'/>
    <tag k='wikidata' v='Q5944586'/>
    <tag k='wikimedia_commons' v='Category:Estación Constituyentes (Metro de México)'/>
    <tag k='wikipedia' v='es:Constituyentes (estación)'/>
  </node>
  <node id='308557058' visible='true' lat='19.4021662' lon='-99.1867465' version='14' timestamp='2023-08-31T09:53:28Z' changeset='140626610' user='Руслан Т' uid='12947635'>
    <tag k='description' v='Línea 7'/>
    <tag k='electrified' v='rail'/>
    <tag k='frequency' v='0'/>
    <tag k='gauge' v='1435'/>
    <tag k='name' v='Tacubaya (Línea 7)'/>
    <tag k='network' v='STC Metro'/>
    <tag k='operator' v='Sistema Transporte Colectivo'/>
    <tag k='public_transport' v='stop_position'/>
    <tag k='railway' v='stop'/>
    <tag k='service' v='yard'/>
    <tag k='subway' v='yes'/>
    <tag k='voltage' v='1500'/>
  </node>
  <node id='308556868' visible='true' lat='19.4044006' lon='-99.1879873' version='25' timestamp='2009-03-23T18:42:27Z' changeset='850817' user='macgirl' uid='101199'/>
  <node id='308556866' visible='true' lat='19.3990079' lon='-99.1849670' version='26' timestamp='2017-04-19T05:25:11Z' changeset='47925448' user='Abbendymion' uid='2191238'/>
  <node id='308556865' visible='true' lat='19.3986004' lon='-99.1850046' version='26' timestamp='2017-04-19T05:25:11Z' changeset='47925448' user='Abbendymion' uid='2191238'/>
  <node id='308556313' visible='true' lat='19.3959093' lon='-99.1853089' version='27' timestamp='2017-04-19T05:25:11Z' changeset='47925448' user='Abbendymion' uid='2191238'/>
  <node id='308556308' visible='true' lat='19.3845079' lon='-99.1866332' version='15' timestamp='2025-09-21T08:59:24Z' changeset='172235217' user='tg4567' uid='12500589'>
    <tag k='electrified' v='rail'/>
    <tag k='frequency' v='0'/>
    <tag k='gauge' v='1435'/>
    <tag k='name' v='San Antonio'/>
    <tag k='network' v='STC Metro'/>
    <tag k='opening_hours' v='Mo-Fr 05:00-24:00; Sa 06:00-24:00; Su 07:00-24:00'/>
    <tag k='operator' v='Sistema de Transporte Colectivo'/>
    <tag k='public_transport' v='station'/>
    <tag k='railway' v='station'/>
    <tag k='service' v='yard'/>
    <tag k='station' v='subway'/>
    <tag k='subway' v='yes'/>
    <tag k='voltage' v='1500'/>
    <tag k='wikidata' v='Q6824698'/>
    <tag k='wikimedia_commons' v='Category:Estación San Antonio (Metro de México)'/>
    <tag k='wikipedia' v='es:San Antonio (estación del Metro de Ciudad de México)'/>
  </node>
  <node id='308556306' visible='true' lat='19.3762376' lon='-99.1876125' version='14' timestamp='2025-09-21T08:59:24Z' changeset='172235217' user='tg4567' uid='12500589'>
    <tag k='electrified' v='rail'/>
    <tag k='frequency' v='0'/>
    <tag k='gauge' v='1435'/>
    <tag k='name' v='Mixcoac'/>
    <tag k='network' v='STC Metro'/>
    <tag k='public_transport' v='stop_position'/>
    <tag k='railway' v='stop'/>
    <tag k='subway' v='yes'/>
    <tag k='wikidata' v='Q6824627'/>
    <tag k='wikimedia_commons' v='Category:Estación Mixcoac (Metro de México)'/>
    <tag k='wikipedia' v='es:Mixcoac (estación)'/>
  </node>
  <node id='308554084' visible='true' lat='19.3615527' lon='-99.1892568' version='21' timestamp='2025-09-21T08:59:24Z' changeset='172235217' user='tg4567' uid='12500589'>
    <tag k='description' v='Last public station on line'/>
    <tag k='electrified' v='rail'/>
    <tag k='frequency' v='0'/>
    <tag k='gauge' v='1435'/>
    <tag k='name' v='Barranca del Muerto'/>
    <tag k='network' v='STC Metro'/>
    <tag k='opening_hours' v='Mo-Fr 05:00-24:00; Sa 06:00-24:00; Su 07:00-24:00'/>
    <tag k='operator' v='Sistema de Transporte Colectivo'/>
    <tag k='public_transport' v='station'/>
    <tag k='railway' v='station'/>
    <tag k='service' v='yard'/>
    <tag k='station' v='subway'/>
    <tag k='subway' v='yes'/>
    <tag k='voltage' v='1500'/>
    <tag k='wikidata' v='Q2885482'/>
    <tag k='wikimedia_commons' v='Category:Estación Barranca del Muerto (Metro de México)'/>
    <tag k='wikipedia' v='es:Barranca del Muerto (estación)'/>
  </node>
  <node id='274924944' visible='true' lat='19.3896343' lon='-99.1850545' version='7' timestamp='2021-04-05T22:54:45Z' changeset='102359691' user='sasQuach' uid='9917894'/>
  <node id='274924321' visible='true' lat='19.3897341' lon='-99.1860315' version='6' timestamp='2023-07-22T07:23:24Z' changeset='138840523' user='Quixlian' uid='16289897'/>
  <node id='274923960' visible='true' lat='19.3900982' lon='-99.1859889' version='7' timestamp='2023-07-22T07:23:24Z' changeset='138840523' user='Quixlian' uid='16289897'/>
  <node id='274923777' visible='true' lat='19.3899943' lon='-99.1814171' version='2' timestamp='2011-08-12T10:08:08Z' changeset='8994141' user='ferval' uid='298530'/>
  <node id='274923776' visible='true' lat='19.3900809' lon='-99.1822561' version='10' timestamp='2023-07-22T05:41:29Z' changeset='138838333' user='Quixlian' uid='16289897'/>
  <node id='274923775' visible='true' lat='19.3901702' lon='-99.1831486' version='5' timestamp='2021-04-05T22:54:45Z' changeset='102359691' user='sasQuach' uid='9917894'/>
  <node id='274923774' visible='true' lat='19.3902579' lon='-99.1840305' version='4' timestamp='2019-05-20T19:50:35Z' changeset='70454333' user='JAAS' uid='3321532'/>
  <node id='274923773' visible='true' lat='19.3903529' lon='-99.1849698' version='7' timestamp='2021-04-05T22:54:45Z' changeset='102359691' user='sasQuach' uid='9917894'/>
  <node id='274923763' visible='true' lat='19.3904513' lon='-99.1859476' version='7' timestamp='2023-07-22T07:23:24Z' changeset='138840523' user='Quixlian' uid='16289897'/>
  <node id='274923111' visible='true' lat='19.3924493' lon='-99.1837938' version='4' timestamp='2021-04-05T22:54:45Z' changeset='102359691' user='sasQuach' uid='9917894'/>
  <node id='274923110' visible='true' lat='19.3924511' lon='-99.1847227' version='6' timestamp='2021-04-05T22:54:45Z' changeset='102359691' user='sasQuach' uid='9917894'/>
  <node id='274923108' visible='true' lat='19.3924113' lon='-99.1857083' version='8' timestamp='2025-06-13T18:35:09Z' changeset='167587589' user='Quixlian' uid='16289897'>
    <tag k='highway' v='traffic_signals'/>
    <tag k='traffic_signals' v='signal'/>
  </node>
  <node id='274922633' visible='true' lat='19.3931464' lon='-99.1867817' version='2' timestamp='2021-04-05T23:01:28Z' changeset='102359847' user='sasQuach' uid='9917894'/>
  <node id='274921468' visible='true' lat='19.3936587' lon='-99.1845805' version='4' timestamp='2021-04-05T22:54:45Z' changeset='102359691' user='sasQuach' uid='9917894'/>
  <node id='274921166' visible='true' lat='19.3947028' lon='-99.1844575' version='3' timestamp='2021-04-05T22:54:45Z' changeset='102359691' user='sasQuach' uid='9917894'/>
  <node id='274920634' visible='true' lat='19.3955311' lon='-99.1843763' version='3' timestamp='2020-11-10T06:35:08Z' changeset='93837300' user='Neshaminy' uid='10074558'/>
  <node id='274920355' visible='true' lat='19.3889733' lon='-99.1851323' version='6' timestamp='2021-04-05T22:54:45Z' changeset='102359691' user='sasQuach' uid='9917894'/>
  <node id='274920354' visible='true' lat='19.3911811' lon='-99.1848723' version='7' timestamp='2021-04-05T22:54:45Z' changeset='102359691' user='sasQuach' uid='9917894'/>
  <node id='274920349' visible='true' lat='19.3961360' lon='-99.1843319' version='3' timestamp='2020-11-10T07:28:47Z' changeset='93841084' user='Neshaminy' uid='10074558'/>
  <node id='274920344' visible='true' lat='19.3911971' lon='-99.1839427' version='5' timestamp='2020-09-25T20:02:22Z' changeset='91529928' user='ProfessorLupin' uid='10456431'/>
  <node id='274919919' visible='true' lat='19.3912027' lon='-99.1830069' version='4' timestamp='2019-03-15T15:52:47Z' changeset='68180141' user='ArleneC_import' uid='9362492'/>
  <node id='274918135' visible='true' lat='19.3977143' lon='-99.1859038' version='3' timestamp='2021-04-05T19:40:38Z' changeset='102354772' user='sasQuach' uid='9917894'/>
  <node id='274917798' visible='true' lat='19.3911565' lon='-99.1858652' version='9' timestamp='2023-07-22T07:23:24Z' changeset='138840523' user='Quixlian' uid='16289897'>
    <tag k='highway' v='traffic_signals'/>
    <tag k='traffic_signals' v='signal'/>
  </node>
  <node id='274917692' visible='true' lat='19.3911361' lon='-99.1870201' version='6' timestamp='2021-04-05T22:54:45Z' changeset='102359691' user='sasQuach' uid='9917894'/>
  <node id='274917691' visible='true' lat='19.3970295' lon='-99.1863694' version='3' timestamp='2019-05-01T18:23:40Z' changeset='69777602' user='JAAS' uid='3321532'/>
  <node id='274917392' visible='true' lat='19.3985482' lon='-99.1853854' version='4' timestamp='2020-09-24T19:18:49Z' changeset='91463058' user='UncoolGuyJake' uid='7674729'/>
  <node id='274917237' visible='true' lat='19.3956577' lon='-99.1864836' version='4' timestamp='2020-09-23T14:45:31Z' changeset='91375065' user='Whimsical Otter' uid='7466823'/>
  <node id='271581607' visible='true' lat='19.4356540' lon='-99.1907106' version='5' timestamp='2018-12-29T04:38:47Z' changeset='65857945' user='5m4u9' uid='72264'/>
  <node id='270609351' visible='true' lat='19.3911403' lon='-99.1888964' version='7' timestamp='2023-07-30T02:34:20Z' changeset='139193722' user='Quixlian' uid='16289897'>
    <tag k='highway' v='traffic_signals'/>
    <tag k='traffic_signals' v='signal'/>
  </node>
  <node id='268717028' visible='true' lat='19.3911943' lon='-99.1821333' version='10' timestamp='2023-07-22T05:41:29Z' changeset='138838333' user='Quixlian' uid='16289897'>
    <tag k='highway' v='traffic_signals'/>
  </node>
  <node id='-1' visible='true' lat='19.3907622' lon='-99.1858822'/>
  <node id='-2' visible='true' lat='19.3921086' lon='-99.1857205'/>
  <node id='-3' visible='true' lat='19.3921076' lon='-99.1857111'/>
  <node id='-4' visible='true' lat='19.3921035' lon='-99.1856732'/>
  <node id='-5' visible='true' lat='19.3907571' lon='-99.1858349'/>
  <node id='-6' visible='true' lat='19.3907612' lon='-99.1858727'/>
  <node id='-9' visible='true' lat='19.3907755' lon='-99.1860052'/>
  <node id='-10' visible='true' lat='19.3921219' lon='-99.1858435'/>
  <node id='-11' visible='true' lat='19.3921178' lon='-99.1858057'/>
  <node id='-12' visible='true' lat='19.3921168' lon='-99.1857962'/>
  <node id='-13' visible='true' lat='19.3907704' lon='-99.1859579'/>
  <node id='-14' visible='true' lat='19.3907714' lon='-99.1859673'/>
  <node id='-17' visible='true' lat='19.3914569' lon='-99.1855295'>
    <tag k='railway' v='subway_entrance'/>
    <tag k='entrance' v='yes'/>
    <tag k='level' v='0'/>
    <tag k='description' v='Acceso oriente'/>
    <tag k='note:stop_id' v='L7-SANPEDRODELOSPINOS-E-02'/>
    <tag k='note:miro_id' v='3458764655659672651'/>
  </node>
  <node id='-18' visible='true' lat='19.3914779' lon='-99.1862284'>
    <tag k='railway' v='subway_entrance'/>
    <tag k='entrance' v='yes'/>
    <tag k='level' v='0'/>
  </node>
  <node id='-19' visible='true' lat='19.3914718' lon='-99.1861716'>
    <tag k='railway' v='subway_entrance'/>
    <tag k='entrance' v='yes'/>
    <tag k='level' v='0'/>
  </node>
  <node id='-20' visible='true' lat='19.3915826' lon='-99.1861871'/>
  <node id='-21' visible='true' lat='19.3914810' lon='-99.1862568'/>
  <node id='-22' visible='true' lat='19.3915887' lon='-99.1862438'/>
  <node id='-23' visible='true' lat='19.3915764' lon='-99.1861303'/>
  <node id='-24' visible='true' lat='19.3914687' lon='-99.1861433'/>
  <node id='-28' visible='true' lat='19.3912545' lon='-99.1865568'/>
  <node id='-29' visible='true' lat='19.3918735' lon='-99.1864825'/>
  <node id='-30' visible='true' lat='19.3918029' lon='-99.1858303'/>
  <node id='-31' visible='true' lat='19.3911840' lon='-99.1859046'/>
  <node id='-33' visible='true' lat='19.3914300' lon='-99.1855328'>
    <tag k='railway' v='subway_entrance'/>
    <tag k='entrance' v='yes'/>
    <tag k='level' v='0'/>
  </node>
  <node id='-34' visible='true' lat='19.3914839' lon='-99.1855263'>
    <tag k='railway' v='subway_entrance'/>
    <tag k='entrance' v='yes'/>
    <tag k='level' v='0'/>
  </node>
  <node id='-35' visible='true' lat='19.3914447' lon='-99.1854160'/>
  <node id='-36' visible='true' lat='19.3914031' lon='-99.1855360'/>
  <node id='-37' visible='true' lat='19.3915108' lon='-99.1855231'/>
  <node id='-38' visible='true' lat='19.3914985' lon='-99.1854096'/>
  <node id='-39' visible='true' lat='19.3913908' lon='-99.1854225'/>
  <node id='-43' visible='true' lat='19.3912622' lon='-99.1857226'/>
  <node id='-44' visible='true' lat='19.3916878' lon='-99.1856715'/>
  <node id='-45' visible='true' lat='19.3916394' lon='-99.1852230'/>
  <node id='-46' visible='true' lat='19.3912138' lon='-99.1852741'/>
  <node id='-48' visible='true' lat='19.3913087' lon='-99.1858070'/>
  <node id='-49' visible='true' lat='19.3914083' lon='-99.1857184'/>
  <node id='-51' visible='true' lat='19.3914180' lon='-99.1856406'/>
  <node id='-53' visible='true' lat='19.3914278' lon='-99.1855627'/>
  <node id='-55' visible='true' lat='19.3914363' lon='-99.1856035'/>
  <node id='-57' visible='true' lat='19.3914215' lon='-99.1858414'/>
  <node id='-59' visible='true' lat='19.3913997' lon='-99.1856776'/>
  <node id='-61' visible='true' lat='19.3914095' lon='-99.1855998'/>
  <node id='-63' visible='true' lat='19.3914266' lon='-99.1856814'/>
  <node id='-65' visible='true' lat='19.3914348' lon='-99.1859643'/>
  <node id='-67' visible='true' lat='19.3913190' lon='-99.1859016'/>
  <node id='-69' visible='true' lat='19.3914610' lon='-99.1860378'/>
  <node id='-71' visible='true' lat='19.3914606' lon='-99.1859961'/>
  <node id='-73' visible='true' lat='19.3914352' lon='-99.1860061'/>
  <node id='-75' visible='true' lat='19.3914871' lon='-99.1861113'/>
  <node id='-77' visible='true' lat='19.3914867' lon='-99.1860696'/>
  <node id='-79' visible='true' lat='19.3914614' lon='-99.1860796'/>
  <node id='-81' visible='true' lat='19.3914267' lon='-99.1858886'/>
  <node id='-83' visible='true' lat='19.3914164' lon='-99.1857941'/>
  <node id='-85' visible='true' lat='19.3915241' lon='-99.1857811'/>
  <node id='-87' visible='true' lat='19.3915344' lon='-99.1858757'/>
  <node id='-91' visible='true' lat='19.3915457' lon='-99.1861340'/>
  <node id='-93' visible='true' lat='19.3914542' lon='-99.1854917'/>
  <node id='-95' visible='true' lat='19.3915240' lon='-99.1861644'/>
  <node id='-97' visible='true' lat='19.3914183' lon='-99.1854871'/>
  <node id='-100' visible='true' lat='19.3912401' lon='-99.1864237'/>
  <node id='-103' visible='true' lat='19.3912590' lon='-99.1856926'/>
  <node id='-105' visible='true' lat='19.3912611' lon='-99.1857122'/>
  <node id='-107' visible='true' lat='19.3916125' lon='-99.1858733'/>
  <node id='-108' visible='true' lat='19.3916171' lon='-99.1859331'/>
  <node id='-109' visible='true' lat='19.3917413' lon='-99.1859181'/>
  <node id='-110' visible='true' lat='19.3917524' lon='-99.1859115'/>
  <node id='-111' visible='true' lat='19.3917586' lon='-99.1859028'/>
  <node id='-112' visible='true' lat='19.3917621' lon='-99.1858895'/>
  <node id='-113' visible='true' lat='19.3917571' lon='-99.1858564'/>
  <node id='-114' visible='true' lat='19.3918128' lon='-99.1858499'/>
  <node id='-115' visible='true' lat='19.3918164' lon='-99.1858916'/>
  <node id='-116' visible='true' lat='19.3918139' lon='-99.1859067'/>
  <node id='-117' visible='true' lat='19.3918035' lon='-99.1859312'/>
  <node id='-118' visible='true' lat='19.3917858' lon='-99.1859504'/>
  <node id='-119' visible='true' lat='19.3917603' lon='-99.1859622'/>
  <node id='-120' visible='true' lat='19.3916957' lon='-99.1859734'/>
  <node id='-121' visible='true' lat='19.3916222' lon='-99.1859845'/>
  <node id='-122' visible='true' lat='19.3916249' lon='-99.1860009'/>
  <node id='-123' visible='true' lat='19.3916328' lon='-99.1860065'/>
  <node id='-124' visible='true' lat='19.3916461' lon='-99.1860214'/>
  <node id='-125' visible='true' lat='19.3916521' lon='-99.1860421'/>
  <node id='-126' visible='true' lat='19.3916519' lon='-99.1860610'/>
  <node id='-127' visible='true' lat='19.3916485' lon='-99.1860748'/>
  <node id='-128' visible='true' lat='19.3916382' lon='-99.1860889'/>
  <node id='-129' visible='true' lat='19.3916519' lon='-99.1862052'/>
  <node id='-130' visible='true' lat='19.3916494' lon='-99.1862392'/>
  <node id='-131' visible='true' lat='19.3916424' lon='-99.1862630'/>
  <node id='-132' visible='true' lat='19.3916211' lon='-99.1862890'/>
  <node id='-133' visible='true' lat='19.3916001' lon='-99.1863015'/>
  <node id='-134' visible='true' lat='19.3915752' lon='-99.1863123'/>
  <node id='-135' visible='true' lat='19.3913888' lon='-99.1863362'/>
  <node id='-136' visible='true' lat='19.3913904' lon='-99.1863469'/>
  <node id='-137' visible='true' lat='19.3913398' lon='-99.1863530'/>
  <node id='-138' visible='true' lat='19.3913170' lon='-99.1861578'/>
  <node id='-139' visible='true' lat='19.3915454' lon='-99.1861283'/>
  <node id='-140' visible='true' lat='19.3915472' lon='-99.1861415'/>
  <node id='-141' visible='true' lat='19.3915673' lon='-99.1861386'/>
  <node id='-142' visible='true' lat='19.3915756' lon='-99.1862204'/>
  <node id='-143' visible='true' lat='19.3915546' lon='-99.1862222'/>
  <node id='-144' visible='true' lat='19.3915556' lon='-99.1862505'/>
  <node id='-145' visible='true' lat='19.3915697' lon='-99.1862493'/>
  <node id='-146' visible='true' lat='19.3915743' lon='-99.1862426'/>
  <node id='-147' visible='true' lat='19.3915837' lon='-99.1862310'/>
  <node id='-148' visible='true' lat='19.3915839' lon='-99.1862126'/>
  <node id='-149' visible='true' lat='19.3915701' lon='-99.1860983'/>
  <node id='-150' visible='true' lat='19.3915546' lon='-99.1860751'/>
  <node id='-151' visible='true' lat='19.3915492' lon='-99.1860606'/>
  <node id='-152' visible='true' lat='19.3915483' lon='-99.1860442'/>
  <node id='-153' visible='true' lat='19.3915550' lon='-99.1860243'/>
  <node id='-154' visible='true' lat='19.3915590' lon='-99.1860113'/>
  <node id='-155' visible='true' lat='19.3915582' lon='-99.1859912'/>
  <node id='-156' visible='true' lat='19.3914414' lon='-99.1860033'/>
  <node id='-157' visible='true' lat='19.3914173' lon='-99.1860008'/>
  <node id='-158' visible='true' lat='19.3913958' lon='-99.1859927'/>
  <node id='-159' visible='true' lat='19.3913823' lon='-99.1859816'/>
  <node id='-160' visible='true' lat='19.3913707' lon='-99.1859674'/>
  <node id='-161' visible='true' lat='19.3913633' lon='-99.1859481'/>
  <node id='-162' visible='true' lat='19.3913586' lon='-99.1859280'/>
  <node id='-163' visible='true' lat='19.3913553' lon='-99.1859041'/>
  <node id='-164' visible='true' lat='19.3914039' lon='-99.1858985'/>
  <node id='-165' visible='true' lat='19.3914059' lon='-99.1859122'/>
  <node id='-166' visible='true' lat='19.3914073' lon='-99.1859216'/>
  <node id='-167' visible='true' lat='19.3914113' lon='-99.1859346'/>
  <node id='-168' visible='true' lat='19.3914195' lon='-99.1859454'/>
  <node id='-169' visible='true' lat='19.3914290' lon='-99.1859519'/>
  <node id='-170' visible='true' lat='19.3914486' lon='-99.1859563'/>
  <node id='-171' visible='true' lat='19.3915539' lon='-99.1859436'/>
  <node id='-172' visible='true' lat='19.3915493' lon='-99.1858817'/>
  <node id='-173' visible='true' lat='19.3906909' lon='-99.1859789'/>
  <node id='-174' visible='true' lat='19.3906731' lon='-99.1858343'/>
  <node id='-175' visible='true' lat='19.3915296' lon='-99.1857410'/>
  <node id='-176' visible='true' lat='19.3915231' lon='-99.1856775'/>
  <node id='-177' visible='true' lat='19.3914114' lon='-99.1856874'/>
  <node id='-178' visible='true' lat='19.3913958' lon='-99.1856927'/>
  <node id='-179' visible='true' lat='19.3913886' lon='-99.1856986'/>
  <node id='-180' visible='true' lat='19.3913819' lon='-99.1857134'/>
  <node id='-181' visible='true' lat='19.3913797' lon='-99.1857275'/>
  <node id='-182' visible='true' lat='19.3913860' lon='-99.1857563'/>
  <node id='-183' visible='true' lat='19.3913355' lon='-99.1857621'/>
  <node id='-184' visible='true' lat='19.3913307' lon='-99.1857275'/>
  <node id='-185' visible='true' lat='19.3913310' lon='-99.1857003'/>
  <node id='-186' visible='true' lat='19.3913412' lon='-99.1856779'/>
  <node id='-187' visible='true' lat='19.3913504' lon='-99.1856636'/>
  <node id='-188' visible='true' lat='19.3913684' lon='-99.1856470'/>
  <node id='-189' visible='true' lat='19.3913981' lon='-99.1856406'/>
  <node id='-190' visible='true' lat='19.3915189' lon='-99.1856261'/>
  <node id='-191' visible='true' lat='19.3915384' lon='-99.1855787'/>
  <node id='-192' visible='true' lat='19.3913837' lon='-99.1855946'/>
  <node id='-193' visible='true' lat='19.3913835' lon='-99.1856028'/>
  <node id='-194' visible='true' lat='19.3913567' lon='-99.1856058'/>
  <node id='-195' visible='true' lat='19.3913340' lon='-99.1853917'/>
  <node id='-196' visible='true' lat='19.3913651' lon='-99.1853880'/>
  <node id='-197' visible='true' lat='19.3913663' lon='-99.1853940'/>
  <node id='-198' visible='true' lat='19.3916065' lon='-99.1853633'/>
  <node id='-199' visible='true' lat='19.3916182' lon='-99.1854649'/>
  <node id='-200' visible='true' lat='19.3916023' lon='-99.1854671'/>
  <node id='-201' visible='true' lat='19.3916031' lon='-99.1854775'/>
  <node id='-202' visible='true' lat='19.3916244' lon='-99.1854740'/>
  <node id='-203' visible='true' lat='19.3916310' lon='-99.1855523'/>
  <node id='-204' visible='true' lat='19.3916113' lon='-99.1855531'/>
  <node id='-205' visible='true' lat='19.3916105' lon='-99.1855714'/>
  <node id='-206' visible='true' lat='19.3915882' lon='-99.1856237'/>
  <node id='-207' visible='true' lat='19.3917379' lon='-99.1856103'/>
  <node id='-208' visible='true' lat='19.3917545' lon='-99.1856132'/>
  <node id='-209' visible='true' lat='19.3917690' lon='-99.1856231'/>
  <node id='-210' visible='true' lat='19.3917844' lon='-99.1856392'/>
  <node id='-211' visible='true' lat='19.3917891' lon='-99.1856566'/>
  <node id='-212' visible='true' lat='19.3917973' lon='-99.1857108'/>
  <node id='-213' visible='true' lat='19.3917465' lon='-99.1857166'/>
  <node id='-214' visible='true' lat='19.3917418' lon='-99.1856897'/>
  <node id='-215' visible='true' lat='19.3917377' lon='-99.1856762'/>
  <node id='-216' visible='true' lat='19.3917315' lon='-99.1856667'/>
  <node id='-217' visible='true' lat='19.3917196' lon='-99.1856607'/>
  <node id='-218' visible='true' lat='19.3917067' lon='-99.1856595'/>
  <node id='-219' visible='true' lat='19.3915929' lon='-99.1856717'/>
  <node id='-220' visible='true' lat='19.3915984' lon='-99.1857368'/>
  <node id='-221' visible='true' lat='19.3920468' lon='-99.1856813'/>
  <node id='-222' visible='true' lat='19.3920595' lon='-99.1858208'/>
  <way id='1540882855' visible='true' version='3' timestamp='2026-08-05T14:12:28Z' changeset='186981481' user='ratrun' uid='474183'>
    <nd ref='14027750155'/>
    <nd ref='14027750154'/>
    <tag k='bench' v='yes'/>
    <tag k='public_transport' v='platform'/>
    <tag k='shelter' v='yes'/>
  </way>
  <way id='1446414823' visible='true' version='2' timestamp='2026-07-19T06:19:49Z' changeset='185990865' user='Campanita' uid='4431244'>
    <nd ref='274917798'/>
    <nd ref='8288470906'/>
    <nd ref='11515613263'/>
    <nd ref='274923763'/>
    <nd ref='274923960'/>
    <nd ref='274924321'/>
    <nd ref='12127251777'/>
    <tag k='bus:lanes' v='|||||designated'/>
    <tag k='cycleway:left' v='no'/>
    <tag k='cycleway:right' v='track'/>
    <tag k='cycleway:right:segregated' v='yes'/>
    <tag k='highway' v='primary'/>
    <tag k='lanes' v='6'/>
    <tag k='lit' v='yes'/>
    <tag k='maxspeed' v='50'/>
    <tag k='maxspeed:type' v='sign'/>
    <tag k='name' v='Avenida Revolución'/>
    <tag k='official_name' v='Circuito Interior Revolución'/>
    <tag k='oneway' v='yes'/>
    <tag k='parking:both' v='no'/>
    <tag k='ref' v='CTO INT'/>
    <tag k='sidewalk' v='both'/>
    <tag k='surface' v='concrete'/>
    <tag k='trolley_wire' v='yes'/>
  </way>
  <way id='1446414822' visible='true' version='2' timestamp='2026-07-19T06:19:49Z' changeset='185990865' user='Campanita' uid='4431244'>
    <nd ref='13271418496'/>
    <nd ref='11841847660'/>
    <nd ref='274917798'/>
    <tag k='bus:lanes' v='|||||designated'/>
    <tag k='change:lanes' v='no|no|no|no|no|no'/>
    <tag k='cycleway:left' v='no'/>
    <tag k='cycleway:right' v='track'/>
    <tag k='cycleway:right:segregated' v='yes'/>
    <tag k='highway' v='primary'/>
    <tag k='lanes' v='6'/>
    <tag k='lit' v='yes'/>
    <tag k='maxspeed' v='50'/>
    <tag k='maxspeed:type' v='sign'/>
    <tag k='name' v='Avenida Revolución'/>
    <tag k='official_name' v='Circuito Interior Revolución'/>
    <tag k='oneway' v='yes'/>
    <tag k='parking:both' v='no'/>
    <tag k='ref' v='CTO INT'/>
    <tag k='sidewalk' v='both'/>
    <tag k='surface' v='concrete'/>
    <tag k='trolley_wire' v='yes'/>
    <tag k='turn:lanes' v='through|through|through|through|through|through'/>
  </way>
  <way id='1446414821' visible='true' version='2' timestamp='2026-07-19T06:19:49Z' changeset='185990865' user='Campanita' uid='4431244'>
    <nd ref='274923108'/>
    <nd ref='13271418496'/>
    <tag k='bus:lanes' v='|||||designated'/>
    <tag k='cycleway:left' v='no'/>
    <tag k='cycleway:right' v='track'/>
    <tag k='cycleway:right:segregated' v='yes'/>
    <tag k='highway' v='primary'/>
    <tag k='lanes' v='6'/>
    <tag k='lit' v='yes'/>
    <tag k='maxspeed' v='50'/>
    <tag k='maxspeed:type' v='sign'/>
    <tag k='name' v='Avenida Revolución'/>
    <tag k='official_name' v='Circuito Interior Revolución'/>
    <tag k='oneway' v='yes'/>
    <tag k='parking:both' v='no'/>
    <tag k='ref' v='CTO INT'/>
    <tag k='sidewalk' v='both'/>
    <tag k='surface' v='concrete'/>
    <tag k='trolley_wire' v='yes'/>
  </way>
  <way id='1446414820' visible='true' version='2' timestamp='2026-07-19T06:19:49Z' changeset='185990865' user='Campanita' uid='4431244'>
    <nd ref='13271418495'/>
    <nd ref='12127300295'/>
    <nd ref='274923108'/>
    <tag k='bus:lanes' v='|||||designated'/>
    <tag k='change:lanes' v='no|no|no|no|no|no'/>
    <tag k='cycleway:left' v='no'/>
    <tag k='cycleway:right' v='track'/>
    <tag k='cycleway:right:segregated' v='yes'/>
    <tag k='highway' v='primary'/>
    <tag k='lanes' v='6'/>
    <tag k='lit' v='yes'/>
    <tag k='maxspeed' v='50'/>
    <tag k='maxspeed:type' v='sign'/>
    <tag k='name' v='Avenida Revolución'/>
    <tag k='official_name' v='Circuito Interior Revolución'/>
    <tag k='oneway' v='yes'/>
    <tag k='parking:both' v='no'/>
    <tag k='ref' v='CTO INT'/>
    <tag k='sidewalk' v='both'/>
    <tag k='surface' v='concrete'/>
    <tag k='trolley_wire' v='yes'/>
    <tag k='turn:lanes' v='through|through|through|through|through|through'/>
  </way>
  <way id='1275346684' visible='true' version='1' timestamp='2024-04-23T16:51:44Z' changeset='150405945' user='VLD062' uid='7676725'>
    <nd ref='11841847659'/>
    <nd ref='11841847661'/>
    <tag k='footway' v='sidewalk'/>
    <tag k='highway' v='footway'/>
  </way>
  <way id='1275346682' visible='true' version='1' timestamp='2024-04-23T16:51:44Z' changeset='150405945' user='VLD062' uid='7676725'>
    <nd ref='11841847654'/>
    <nd ref='11841847657'/>
    <tag k='footway' v='sidewalk'/>
    <tag k='highway' v='footway'/>
  </way>
  <way id='1275346681' visible='true' version='1' timestamp='2024-04-23T16:51:44Z' changeset='150405945' user='VLD062' uid='7676725'>
    <nd ref='11841847657'/>
    <nd ref='11841847660'/>
    <nd ref='11841847658'/>
    <tag k='crossing' v='traffic_signals'/>
    <tag k='crossing:markings' v='zebra'/>
    <tag k='crossing:signals' v='yes'/>
    <tag k='footway' v='crossing'/>
    <tag k='highway' v='footway'/>
  </way>
  <way id='1275346680' visible='true' version='1' timestamp='2024-04-23T16:51:44Z' changeset='150405945' user='VLD062' uid='7676725'>
    <nd ref='11841847658'/>
    <nd ref='11841847659'/>
    <tag k='footway' v='sidewalk'/>
    <tag k='highway' v='footway'/>
  </way>
  <way id='1275346679' visible='true' version='1' timestamp='2024-04-23T16:51:44Z' changeset='150405945' user='VLD062' uid='7676725'>
    <nd ref='11841847654'/>
    <nd ref='11841847656'/>
    <tag k='footway' v='sidewalk'/>
    <tag k='highway' v='footway'/>
  </way>
  <way id='1275346677' visible='true' version='1' timestamp='2024-04-23T16:51:44Z' changeset='150405945' user='VLD062' uid='7676725'>
    <nd ref='11841847653'/>
    <nd ref='11841847665'/>
    <nd ref='11841847654'/>
    <tag k='crossing' v='unmarked'/>
    <tag k='crossing:markings' v='no'/>
    <tag k='footway' v='crossing'/>
    <tag k='highway' v='footway'/>
  </way>
  <way id='891780680' visible='true' version='4' timestamp='2024-04-23T16:51:44Z' changeset='150405945' user='VLD062' uid='7676725'>
    <nd ref='8288470906'/>
    <nd ref='11841847655'/>
    <nd ref='8596923972'/>
    <nd ref='8288470905'/>
    <nd ref='8596923970'/>
    <nd ref='8596923971'/>
    <nd ref='8288489742'/>
    <nd ref='8288470904'/>
    <tag k='highway' v='service'/>
  </way>
  <way id='684473002' visible='true' version='9' timestamp='2024-04-23T16:51:44Z' changeset='150405945' user='VLD062' uid='7676725'>
    <nd ref='474698560'/>
    <nd ref='1395878686'/>
    <nd ref='274917392'/>
    <nd ref='274918135'/>
    <nd ref='274917691'/>
    <nd ref='8133094266'/>
    <nd ref='274917237'/>
    <nd ref='7934797100'/>
    <nd ref='8272873655'/>
    <nd ref='274922633'/>
    <nd ref='4611971082'/>
    <nd ref='11841847664'/>
    <nd ref='274917692'/>
    <tag k='alt_name' v='Avenida Primero de Mayo'/>
    <tag k='highway' v='residential'/>
    <tag k='name' v='Avenida 1º de Mayo'/>
    <tag k='oneway' v='yes'/>
    <tag k='surface' v='asphalt'/>
  </way>
  <way id='466395125' visible='true' version='5' timestamp='2023-05-24T18:37:44Z' changeset='136513237' user='Quixlian' uid='16289897'>
    <nd ref='4611971082'/>
    <nd ref='274923108'/>
    <tag k='highway' v='residential'/>
    <tag k='name' v='Calle 2'/>
    <tag k='oneway' v='yes'/>
    <tag k='surface' v='asphalt'/>
  </way>
  <way id='320892187' visible='true' version='32' timestamp='2026-07-20T00:15:27Z' changeset='186032447' user='Campanita' uid='4431244'>
    <nd ref='13738776796'/>
    <nd ref='13738776795'/>
    <nd ref='13738776794'/>
    <nd ref='13738776793'/>
    <nd ref='308554084'/>
    <nd ref='11023055665'/>
    <nd ref='11023055664'/>
    <nd ref='13863621695'/>
    <nd ref='1434456386'/>
    <nd ref='1434456404'/>
    <nd ref='1434456410'/>
    <nd ref='434303473'/>
    <nd ref='344722039'/>
    <nd ref='308556306'/>
    <nd ref='14027750147'/>
    <nd ref='308556308'/>
    <nd ref='681454741'/>
    <nd ref='308556313'/>
    <nd ref='308556865'/>
    <nd ref='308556866'/>
    <nd ref='6298545886'/>
    <nd ref='4802953130'/>
    <nd ref='4802953131'/>
    <nd ref='7887774995'/>
    <nd ref='4802953128'/>
    <nd ref='3035586246'/>
    <nd ref='308557058'/>
    <nd ref='4802953126'/>
    <nd ref='308556868'/>
    <nd ref='4802953125'/>
    <nd ref='4802953124'/>
    <nd ref='308557541'/>
    <nd ref='4802953122'/>
    <nd ref='4802953123'/>
    <nd ref='12671151152'/>
    <nd ref='4802953121'/>
    <nd ref='4802953120'/>
    <nd ref='308561115'/>
    <nd ref='4802953117'/>
    <nd ref='4802953118'/>
    <nd ref='4802953119'/>
    <nd ref='4802953116'/>
    <nd ref='4802953115'/>
    <nd ref='308561116'/>
    <nd ref='3035570524'/>
    <nd ref='308561119'/>
    <nd ref='4802953114'/>
    <nd ref='308561120'/>
    <nd ref='271581607'/>
    <nd ref='4802953113'/>
    <nd ref='308561808'/>
    <nd ref='308561809'/>
    <nd ref='308561810'/>
    <nd ref='4802953112'/>
    <nd ref='308561813'/>
    <nd ref='4802953111'/>
    <nd ref='308561814'/>
    <nd ref='681448501'/>
    <nd ref='380224303'/>
    <nd ref='392066395'/>
    <nd ref='392066396'/>
    <nd ref='4802953110'/>
    <nd ref='392066397'/>
    <nd ref='1480964132'/>
    <nd ref='4802953098'/>
    <nd ref='4802953099'/>
    <nd ref='13683022552'/>
    <nd ref='4802953097'/>
    <nd ref='4802953109'/>
    <nd ref='4802953108'/>
    <nd ref='4802953107'/>
    <nd ref='4802953106'/>
    <nd ref='4802953105'/>
    <nd ref='308562279'/>
    <nd ref='4802953100'/>
    <nd ref='4802953101'/>
    <nd ref='4802953102'/>
    <nd ref='4802953063'/>
    <nd ref='3649280622'/>
    <nd ref='4802953043'/>
    <nd ref='4802953056'/>
    <nd ref='4802953057'/>
    <nd ref='4802953058'/>
    <nd ref='4802953059'/>
    <nd ref='4802953103'/>
    <nd ref='4802953104'/>
    <nd ref='4802953060'/>
    <nd ref='4802953061'/>
    <nd ref='4802953055'/>
    <nd ref='4802953054'/>
    <nd ref='4802953062'/>
    <nd ref='4802953053'/>
    <nd ref='4802953052'/>
    <nd ref='4802953051'/>
    <nd ref='4802953050'/>
    <nd ref='4802953049'/>
    <nd ref='4802953046'/>
    <nd ref='4802953048'/>
    <nd ref='4802953047'/>
    <nd ref='4802953045'/>
    <nd ref='4802953044'/>
    <nd ref='2913765505'/>
    <nd ref='308562800'/>
    <nd ref='4802953041'/>
    <nd ref='308564178'/>
    <nd ref='308564179'/>
    <nd ref='308564180'/>
    <nd ref='308564183'/>
    <nd ref='308564184'/>
    <nd ref='4802953040'/>
    <nd ref='4802953039'/>
    <nd ref='308564185'/>
    <nd ref='4802953038'/>
    <nd ref='4802953037'/>
    <nd ref='4802953036'/>
    <nd ref='308564186'/>
    <nd ref='308564187'/>
    <nd ref='4802953035'/>
    <nd ref='4802953034'/>
    <nd ref='308564188'/>
    <nd ref='4802953031'/>
    <nd ref='4802953030'/>
    <nd ref='4802953029'/>
    <nd ref='308564189'/>
    <nd ref='351114285'/>
    <nd ref='351114286'/>
    <nd ref='4802953028'/>
    <nd ref='351114287'/>
    <nd ref='351114288'/>
    <nd ref='553409514'/>
    <tag k='electrified' v='rail'/>
    <tag k='frequency' v='0'/>
    <tag k='gauge' v='1435'/>
    <tag k='layer' v='-4'/>
    <tag k='level' v='-4'/>
    <tag k='name' v='Línea 7'/>
    <tag k='operator' v='Sistema de Transporte Colectivo'/>
    <tag k='operator:wikidata' v='Q735042'/>
    <tag k='railway' v='subway'/>
    <tag k='rubber_tires' v='yes'/>
    <tag k='tracks' v='2'/>
    <tag k='tunnel' v='yes'/>
    <tag k='usage' v='main'/>
    <tag k='voltage' v='750'/>
  </way>
  <way id='287957414' visible='true' version='7' timestamp='2024-08-22T08:58:51Z' changeset='155593956' user='Gorger' uid='20415418'>
    <nd ref='274917798'/>
    <nd ref='274917692'/>
    <nd ref='12126285436'/>
    <nd ref='270609351'/>
    <nd ref='7943211865'/>
    <tag k='highway' v='tertiary'/>
    <tag k='lanes' v='2'/>
    <tag k='name' v='Calle 4'/>
    <tag k='oneway' v='yes'/>
    <tag k='surface' v='asphalt'/>
  </way>
  <way id='25213548' visible='true' version='8' timestamp='2026-06-28T09:56:51Z' changeset='184735014' user='PPZ6' uid='20011809'>
    <nd ref='274923763'/>
    <nd ref='11841847666'/>
    <nd ref='274923773'/>
    <nd ref='274923774'/>
    <nd ref='274923775'/>
    <nd ref='274923776'/>
    <nd ref='13971955050'/>
    <nd ref='274923777'/>
    <tag k='highway' v='residential'/>
    <tag k='lane_markings' v='no'/>
    <tag k='name' v='Calle 13'/>
    <tag k='oneway' v='yes'/>
    <tag k='surface' v='asphalt'/>
  </way>
  <way id='25213503' visible='true' version='3' timestamp='2020-09-23T14:51:14Z' changeset='91375379' user='Whimsical Otter' uid='7466823'>
    <nd ref='274923108'/>
    <nd ref='274923110'/>
    <nd ref='274923111'/>
    <tag k='highway' v='residential'/>
    <tag k='name' v='Calle 7'/>
    <tag k='oneway' v='yes'/>
    <tag k='surface' v='asphalt'/>
  </way>
  <way id='25213367' visible='true' version='13' timestamp='2024-04-23T16:51:44Z' changeset='150405945' user='VLD062' uid='7676725'>
    <nd ref='274920355'/>
    <nd ref='11841847638'/>
    <nd ref='11841847644'/>
    <nd ref='274924944'/>
    <nd ref='274923773'/>
    <nd ref='274920354'/>
    <nd ref='274923110'/>
    <nd ref='274921468'/>
    <nd ref='274921166'/>
    <nd ref='274920634'/>
    <nd ref='274920349'/>
    <tag k='highway' v='residential'/>
    <tag k='name' v='Avenida 1'/>
    <tag k='oneway' v='yes'/>
    <tag k='surface' v='asphalt'/>
  </way>
  <way id='25213255' visible='true' version='12' timestamp='2024-04-23T16:51:44Z' changeset='150405945' user='VLD062' uid='7676725'>
    <nd ref='268717028'/>
    <nd ref='274919919'/>
    <nd ref='8226555237'/>
    <nd ref='274920344'/>
    <nd ref='274920354'/>
    <nd ref='8288470904'/>
    <nd ref='11841847665'/>
    <nd ref='274917798'/>
    <tag k='highway' v='tertiary'/>
    <tag k='lanes' v='2'/>
    <tag k='name' v='Calle 9'/>
    <tag k='oneway' v='yes'/>
    <tag k='surface' v='asphalt'/>
  </way>
  <way id='-7' visible='true'>
    <nd ref='-1'/>
    <nd ref='-2'/>
    <nd ref='-3'/>
    <nd ref='-4'/>
    <nd ref='-5'/>
    <nd ref='-6'/>
    <nd ref='-1'/>
    <tag k='railway' v='platform'/>
    <tag k='public_transport' v='platform'/>
    <tag k='area' v='yes'/>
    <tag k='subway' v='yes'/>
    <tag k='level' v='-3'/>
    <tag k='name' v='San Pedro de los Pinos'/>
    <tag k='destination' v='El Rosario'/>
    <tag k='layer' v='-3'/>
    <tag k='location' v='underground'/>
    <tag k='note:stop_id' v='L7-SANPEDRODELOSPINOS-P-01'/>
    <tag k='note:miro_id' v='3458764655659671978'/>
  </way>
  <way id='-8' visible='true'>
    <nd ref='-6'/>
    <nd ref='-48'/>
    <nd ref='-83'/>
    <nd ref='-85'/>
    <nd ref='-3'/>
    <tag k='highway' v='footway'/>
    <tag k='indoor' v='yes'/>
    <tag k='level' v='-3'/>
    <tag k='note:stop_id' v='L7-SANPEDRODELOSPINOS-P-01'/>
  </way>
  <way id='-15' visible='true'>
    <nd ref='-9'/>
    <nd ref='-10'/>
    <nd ref='-11'/>
    <nd ref='-12'/>
    <nd ref='-13'/>
    <nd ref='-14'/>
    <nd ref='-9'/>
    <tag k='railway' v='platform'/>
    <tag k='public_transport' v='platform'/>
    <tag k='area' v='yes'/>
    <tag k='subway' v='yes'/>
    <tag k='level' v='-3'/>
    <tag k='name' v='San Pedro de los Pinos'/>
    <tag k='destination' v='Barranca del Muerto'/>
    <tag k='layer' v='-3'/>
    <tag k='location' v='underground'/>
    <tag k='note:stop_id' v='L7-SANPEDRODELOSPINOS-P-02'/>
    <tag k='note:miro_id' v='3458764655659671979'/>
  </way>
  <way id='-16' visible='true'>
    <nd ref='-14'/>
    <nd ref='-67'/>
    <nd ref='-81'/>
    <nd ref='-87'/>
    <nd ref='-11'/>
    <tag k='highway' v='footway'/>
    <tag k='indoor' v='yes'/>
    <tag k='level' v='-3'/>
    <tag k='note:stop_id' v='L7-SANPEDRODELOSPINOS-P-02'/>
  </way>
  <way id='-25' visible='true'>
    <nd ref='-21'/>
    <nd ref='-22'/>
    <nd ref='-20'/>
    <nd ref='-23'/>
    <nd ref='-24'/>
    <nd ref='-19'/>
    <nd ref='3761143341'/>
    <nd ref='-18'/>
    <nd ref='-21'/>
    <tag k='building' v='yes'/>
  </way>
  <way id='-26' visible='true'>
    <nd ref='-18'/>
    <nd ref='3761143341'/>
    <tag k='highway' v='footway'/>
    <tag k='indoor' v='yes'/>
    <tag k='level' v='0'/>
  </way>
  <way id='-27' visible='true'>
    <nd ref='-19'/>
    <nd ref='3761143341'/>
    <tag k='highway' v='footway'/>
    <tag k='indoor' v='yes'/>
    <tag k='level' v='0'/>
  </way>
  <way id='-32' visible='true'>
    <nd ref='-28'/>
    <nd ref='-29'/>
    <nd ref='-30'/>
    <nd ref='-31'/>
    <nd ref='-100'/>
    <nd ref='-28'/>
    <tag k='highway' v='pedestrian'/>
    <tag k='area' v='yes'/>
  </way>
  <way id='-40' visible='true'>
    <nd ref='-36'/>
    <nd ref='-33'/>
    <nd ref='-17'/>
    <nd ref='-34'/>
    <nd ref='-37'/>
    <nd ref='-38'/>
    <nd ref='-35'/>
    <nd ref='-39'/>
    <nd ref='-36'/>
    <tag k='building' v='yes'/>
  </way>
  <way id='-41' visible='true'>
    <nd ref='-33'/>
    <nd ref='-17'/>
    <tag k='highway' v='footway'/>
    <tag k='indoor' v='yes'/>
    <tag k='level' v='0'/>
  </way>
  <way id='-42' visible='true'>
    <nd ref='-34'/>
    <nd ref='-17'/>
    <tag k='highway' v='footway'/>
    <tag k='indoor' v='yes'/>
    <tag k='level' v='0'/>
  </way>
  <way id='-47' visible='true'>
    <nd ref='-43'/>
    <nd ref='11841847656'/>
    <nd ref='-44'/>
    <nd ref='-45'/>
    <nd ref='-46'/>
    <nd ref='-103'/>
    <nd ref='-105'/>
    <nd ref='-43'/>
    <tag k='highway' v='pedestrian'/>
    <tag k='area' v='yes'/>
  </way>
  <way id='-50' visible='true'>
    <nd ref='-48'/>
    <nd ref='-49'/>
    <tag k='highway' v='footway'/>
    <tag k='indoor' v='yes'/>
    <tag k='level' v='-3'/>
    <tag k='note:pathway_id' v='3458764655659671984'/>
    <tag k='note:miro_id' v='3458764655659671984'/>
  </way>
  <way id='-52' visible='true'>
    <nd ref='-49'/>
    <nd ref='-51'/>
    <tag k='highway' v='steps'/>
    <tag k='indoor' v='yes'/>
    <tag k='level' v='-3;-2'/>
    <tag k='incline' v='up'/>
    <tag k='wheelchair' v='no'/>
    <tag k='conveying' v='reversible'/>
    <tag k='note:pathway_id' v='3458764655659671985'/>
    <tag k='note:miro_id' v='3458764655659671985'/>
  </way>
  <way id='-54' visible='true'>
    <nd ref='-51'/>
    <nd ref='-53'/>
    <tag k='highway' v='steps'/>
    <tag k='indoor' v='yes'/>
    <tag k='level' v='-2;-1'/>
    <tag k='incline' v='up'/>
    <tag k='wheelchair' v='no'/>
    <tag k='conveying' v='reversible'/>
    <tag k='note:pathway_id' v='3458764655659671986'/>
    <tag k='note:miro_id' v='3458764655659671986'/>
  </way>
  <way id='-56' visible='true'>
    <nd ref='-51'/>
    <nd ref='-55'/>
    <nd ref='-53'/>
    <tag k='highway' v='steps'/>
    <tag k='indoor' v='yes'/>
    <tag k='level' v='-2;-1'/>
    <tag k='incline' v='up'/>
    <tag k='wheelchair' v='no'/>
    <tag k='conveying' v='forward'/>
    <tag k='oneway:foot' v='yes'/>
    <tag k='note:pathway_id' v='3458764655659671987'/>
    <tag k='note:miro_id' v='3458764655659671987'/>
  </way>
  <way id='-58' visible='true'>
    <nd ref='-57'/>
    <nd ref='-83'/>
    <nd ref='-49'/>
    <tag k='highway' v='steps'/>
    <tag k='indoor' v='yes'/>
    <tag k='level' v='-4;-3'/>
    <tag k='incline' v='up'/>
    <tag k='wheelchair' v='no'/>
    <tag k='note:pathway_id' v='3458764655659671989'/>
    <tag k='note:miro_id' v='3458764655659671989'/>
  </way>
  <way id='-60' visible='true'>
    <nd ref='-49'/>
    <nd ref='-59'/>
    <nd ref='-51'/>
    <tag k='highway' v='steps'/>
    <tag k='indoor' v='yes'/>
    <tag k='level' v='-3;-2'/>
    <tag k='incline' v='up'/>
    <tag k='wheelchair' v='no'/>
    <tag k='note:pathway_id' v='3458764655659671990'/>
    <tag k='note:miro_id' v='3458764655659671990'/>
  </way>
  <way id='-62' visible='true'>
    <nd ref='-51'/>
    <nd ref='-61'/>
    <nd ref='-53'/>
    <tag k='highway' v='steps'/>
    <tag k='indoor' v='yes'/>
    <tag k='level' v='-2;-1'/>
    <tag k='incline' v='up'/>
    <tag k='wheelchair' v='no'/>
    <tag k='note:pathway_id' v='3458764655659671991'/>
    <tag k='note:miro_id' v='3458764655659671991'/>
  </way>
  <way id='-64' visible='true'>
    <nd ref='-49'/>
    <nd ref='-63'/>
    <nd ref='-51'/>
    <tag k='highway' v='steps'/>
    <tag k='indoor' v='yes'/>
    <tag k='level' v='-3;-2'/>
    <tag k='incline' v='up'/>
    <tag k='wheelchair' v='no'/>
    <tag k='conveying' v='forward'/>
    <tag k='oneway:foot' v='yes'/>
    <tag k='note:pathway_id' v='3458764655659671992'/>
    <tag k='note:miro_id' v='3458764655659671992'/>
  </way>
  <way id='-66' visible='true'>
    <nd ref='-57'/>
    <nd ref='-81'/>
    <nd ref='-65'/>
    <tag k='highway' v='steps'/>
    <tag k='indoor' v='yes'/>
    <tag k='level' v='-4;-3'/>
    <tag k='incline' v='up'/>
    <tag k='wheelchair' v='no'/>
    <tag k='note:pathway_id' v='3458764655659671994'/>
    <tag k='note:miro_id' v='3458764655659671994'/>
  </way>
  <way id='-68' visible='true'>
    <nd ref='-67'/>
    <nd ref='-65'/>
    <tag k='highway' v='footway'/>
    <tag k='indoor' v='yes'/>
    <tag k='level' v='-3'/>
    <tag k='note:pathway_id' v='3458764655659671995'/>
    <tag k='note:miro_id' v='3458764655659671995'/>
  </way>
  <way id='-70' visible='true'>
    <nd ref='-65'/>
    <nd ref='-69'/>
    <tag k='highway' v='steps'/>
    <tag k='indoor' v='yes'/>
    <tag k='level' v='-3;-2'/>
    <tag k='incline' v='up'/>
    <tag k='wheelchair' v='no'/>
    <tag k='conveying' v='reversible'/>
    <tag k='note:pathway_id' v='3458764655659671997'/>
    <tag k='note:miro_id' v='3458764655659671997'/>
  </way>
  <way id='-72' visible='true'>
    <nd ref='-65'/>
    <nd ref='-71'/>
    <nd ref='-69'/>
    <tag k='highway' v='steps'/>
    <tag k='indoor' v='yes'/>
    <tag k='level' v='-3;-2'/>
    <tag k='incline' v='up'/>
    <tag k='wheelchair' v='no'/>
    <tag k='conveying' v='forward'/>
    <tag k='oneway:foot' v='yes'/>
    <tag k='note:pathway_id' v='3458764655659671998'/>
    <tag k='note:miro_id' v='3458764655659671998'/>
  </way>
  <way id='-74' visible='true'>
    <nd ref='-65'/>
    <nd ref='-73'/>
    <nd ref='-69'/>
    <tag k='highway' v='steps'/>
    <tag k='indoor' v='yes'/>
    <tag k='level' v='-3;-2'/>
    <tag k='incline' v='up'/>
    <tag k='wheelchair' v='no'/>
    <tag k='note:pathway_id' v='3458764655659671999'/>
    <tag k='note:miro_id' v='3458764655659671999'/>
  </way>
  <way id='-76' visible='true'>
    <nd ref='-69'/>
    <nd ref='-75'/>
    <tag k='highway' v='steps'/>
    <tag k='indoor' v='yes'/>
    <tag k='level' v='-2;-1'/>
    <tag k='incline' v='up'/>
    <tag k='wheelchair' v='no'/>
    <tag k='conveying' v='reversible'/>
    <tag k='note:pathway_id' v='3458764655659672002'/>
    <tag k='note:miro_id' v='3458764655659672002'/>
  </way>
  <way id='-78' visible='true'>
    <nd ref='-69'/>
    <nd ref='-77'/>
    <nd ref='-75'/>
    <tag k='highway' v='steps'/>
    <tag k='indoor' v='yes'/>
    <tag k='level' v='-2;-1'/>
    <tag k='incline' v='up'/>
    <tag k='wheelchair' v='no'/>
    <tag k='conveying' v='forward'/>
    <tag k='oneway:foot' v='yes'/>
    <tag k='note:pathway_id' v='3458764655659672003'/>
    <tag k='note:miro_id' v='3458764655659672003'/>
  </way>
  <way id='-80' visible='true'>
    <nd ref='-69'/>
    <nd ref='-79'/>
    <nd ref='-75'/>
    <tag k='highway' v='steps'/>
    <tag k='indoor' v='yes'/>
    <tag k='level' v='-2;-1'/>
    <tag k='incline' v='up'/>
    <tag k='wheelchair' v='no'/>
    <tag k='note:pathway_id' v='3458764655659672004'/>
    <tag k='note:miro_id' v='3458764655659672004'/>
  </way>
  <way id='-82' visible='true'>
    <nd ref='-81'/>
    <nd ref='-65'/>
    <tag k='highway' v='footway'/>
    <tag k='indoor' v='yes'/>
    <tag k='level' v='-3'/>
    <tag k='note:pathway_id' v='3458764655659672020'/>
    <tag k='note:miro_id' v='3458764655659672020'/>
  </way>
  <way id='-84' visible='true'>
    <nd ref='-83'/>
    <nd ref='-49'/>
    <tag k='highway' v='footway'/>
    <tag k='indoor' v='yes'/>
    <tag k='level' v='-3'/>
    <tag k='note:pathway_id' v='3458764655659672021'/>
    <tag k='note:miro_id' v='3458764655659672021'/>
  </way>
  <way id='-86' visible='true'>
    <nd ref='-85'/>
    <nd ref='-49'/>
    <tag k='highway' v='footway'/>
    <tag k='indoor' v='yes'/>
    <tag k='level' v='-3'/>
    <tag k='note:pathway_id' v='3458764655659672022'/>
    <tag k='note:miro_id' v='3458764655659672022'/>
  </way>
  <way id='-88' visible='true'>
    <nd ref='-87'/>
    <nd ref='-65'/>
    <tag k='highway' v='footway'/>
    <tag k='indoor' v='yes'/>
    <tag k='level' v='-3'/>
    <tag k='note:pathway_id' v='3458764655659672023'/>
    <tag k='note:miro_id' v='3458764655659672023'/>
  </way>
  <way id='-89' visible='true'>
    <nd ref='-20'/>
    <nd ref='3761143341'/>
    <tag k='highway' v='footway'/>
    <tag k='indoor' v='yes'/>
    <tag k='level' v='0'/>
    <tag k='note:pathway_id' v='3458764655659672654'/>
    <tag k='note:miro_id' v='3458764655659672654'/>
  </way>
  <way id='-90' visible='true'>
    <nd ref='-17'/>
    <nd ref='-35'/>
    <tag k='highway' v='footway'/>
    <tag k='indoor' v='yes'/>
    <tag k='level' v='0'/>
    <tag k='note:pathway_id' v='3458764655659672655'/>
    <tag k='note:miro_id' v='3458764655659672655'/>
  </way>
  <way id='-92' visible='true'>
    <nd ref='-75'/>
    <nd ref='-91'/>
    <nd ref='-20'/>
    <tag k='highway' v='steps'/>
    <tag k='indoor' v='yes'/>
    <tag k='level' v='-1;0'/>
    <tag k='incline' v='up'/>
    <tag k='wheelchair' v='no'/>
    <tag k='conveying' v='forward'/>
    <tag k='oneway:foot' v='yes'/>
    <tag k='note:pathway_id' v='3458764655659672851'/>
    <tag k='note:miro_id' v='3458764655659672851'/>
  </way>
  <way id='-94' visible='true'>
    <nd ref='-53'/>
    <nd ref='-93'/>
    <nd ref='-35'/>
    <tag k='highway' v='steps'/>
    <tag k='indoor' v='yes'/>
    <tag k='level' v='-1;0'/>
    <tag k='incline' v='up'/>
    <tag k='wheelchair' v='no'/>
    <tag k='conveying' v='forward'/>
    <tag k='oneway:foot' v='yes'/>
    <tag k='note:pathway_id' v='3458764655659802027'/>
    <tag k='note:miro_id' v='3458764655659802027'/>
  </way>
  <way id='-96' visible='true'>
    <nd ref='-75'/>
    <nd ref='-95'/>
    <nd ref='-20'/>
    <tag k='highway' v='steps'/>
    <tag k='indoor' v='yes'/>
    <tag k='level' v='-1;0'/>
    <tag k='incline' v='up'/>
    <tag k='wheelchair' v='no'/>
    <tag k='note:pathway_id' v='3458764655659802072'/>
    <tag k='note:miro_id' v='3458764655659802072'/>
  </way>
  <way id='-98' visible='true'>
    <nd ref='-53'/>
    <nd ref='-97'/>
    <nd ref='-35'/>
    <tag k='highway' v='steps'/>
    <tag k='indoor' v='yes'/>
    <tag k='level' v='-1;0'/>
    <tag k='incline' v='up'/>
    <tag k='wheelchair' v='no'/>
    <tag k='note:pathway_id' v='3458764655659802113'/>
    <tag k='note:miro_id' v='3458764655659802113'/>
  </way>
  <way id='-99' visible='true'>
    <nd ref='3761143341'/>
    <nd ref='11841847658'/>
    <tag k='highway' v='footway'/>
    <tag k='level' v='0'/>
  </way>
  <way id='-101' visible='true'>
    <nd ref='3761143341'/>
    <nd ref='-100'/>
    <nd ref='11841847659'/>
    <tag k='highway' v='footway'/>
    <tag k='level' v='0'/>
  </way>
  <way id='-102' visible='true'>
    <nd ref='-17'/>
    <nd ref='11841847656'/>
    <tag k='highway' v='footway'/>
    <tag k='level' v='0'/>
  </way>
  <way id='-104' visible='true'>
    <nd ref='-17'/>
    <nd ref='-103'/>
    <nd ref='11841847654'/>
    <tag k='highway' v='footway'/>
    <tag k='level' v='0'/>
  </way>
  <way id='-106' visible='true'>
    <nd ref='-17'/>
    <nd ref='-105'/>
    <nd ref='11841847657'/>
    <tag k='highway' v='footway'/>
    <tag k='level' v='0'/>
  </way>
  <way id='-223' visible='true'>
    <nd ref='-107'/>
    <nd ref='-108'/>
    <nd ref='-109'/>
    <nd ref='-110'/>
    <nd ref='-111'/>
    <nd ref='-112'/>
    <nd ref='-113'/>
    <nd ref='-114'/>
    <nd ref='-115'/>
    <nd ref='-116'/>
    <nd ref='-117'/>
    <nd ref='-118'/>
    <nd ref='-119'/>
    <nd ref='-120'/>
    <nd ref='-121'/>
    <nd ref='-122'/>
    <nd ref='-123'/>
    <nd ref='-124'/>
    <nd ref='-125'/>
    <nd ref='-126'/>
    <nd ref='-127'/>
    <nd ref='-128'/>
    <nd ref='-129'/>
    <nd ref='-130'/>
    <nd ref='-131'/>
    <nd ref='-132'/>
    <nd ref='-133'/>
    <nd ref='-134'/>
    <nd ref='-135'/>
    <nd ref='-136'/>
    <nd ref='-137'/>
    <nd ref='-138'/>
    <nd ref='-139'/>
    <nd ref='-140'/>
    <nd ref='-141'/>
    <nd ref='-142'/>
    <nd ref='-143'/>
    <nd ref='-144'/>
    <nd ref='-145'/>
    <nd ref='-146'/>
    <nd ref='-147'/>
    <nd ref='-148'/>
    <nd ref='-149'/>
    <nd ref='-150'/>
    <nd ref='-151'/>
    <nd ref='-152'/>
    <nd ref='-153'/>
    <nd ref='-154'/>
    <nd ref='-155'/>
    <nd ref='-156'/>
    <nd ref='-157'/>
    <nd ref='-158'/>
    <nd ref='-159'/>
    <nd ref='-160'/>
    <nd ref='-161'/>
    <nd ref='-162'/>
    <nd ref='-163'/>
    <nd ref='-164'/>
    <nd ref='-165'/>
    <nd ref='-166'/>
    <nd ref='-167'/>
    <nd ref='-168'/>
    <nd ref='-169'/>
    <nd ref='-170'/>
    <nd ref='-171'/>
    <nd ref='-172'/>
    <nd ref='-173'/>
    <nd ref='-174'/>
    <nd ref='-175'/>
    <nd ref='-176'/>
    <nd ref='-177'/>
    <nd ref='-178'/>
    <nd ref='-179'/>
    <nd ref='-180'/>
    <nd ref='-181'/>
    <nd ref='-182'/>
    <nd ref='-183'/>
    <nd ref='-184'/>
    <nd ref='-185'/>
    <nd ref='-186'/>
    <nd ref='-187'/>
    <nd ref='-188'/>
    <nd ref='-189'/>
    <nd ref='-190'/>
    <nd ref='-191'/>
    <nd ref='-192'/>
    <nd ref='-193'/>
    <nd ref='-194'/>
    <nd ref='-195'/>
    <nd ref='-196'/>
    <nd ref='-197'/>
    <nd ref='-198'/>
    <nd ref='-199'/>
    <nd ref='-200'/>
    <nd ref='-201'/>
    <nd ref='-202'/>
    <nd ref='-203'/>
    <nd ref='-204'/>
    <nd ref='-205'/>
    <nd ref='-206'/>
    <nd ref='-207'/>
    <nd ref='-208'/>
    <nd ref='-209'/>
    <nd ref='-210'/>
    <nd ref='-211'/>
    <nd ref='-212'/>
    <nd ref='-213'/>
    <nd ref='-214'/>
    <nd ref='-215'/>
    <nd ref='-216'/>
    <nd ref='-217'/>
    <nd ref='-218'/>
    <nd ref='-219'/>
    <nd ref='-220'/>
    <nd ref='-221'/>
    <nd ref='-222'/>
    <nd ref='-107'/>
    <tag k='public_transport' v='station'/>
    <tag k='station' v='subway'/>
    <tag k='subway' v='yes'/>
    <tag k='name' v='San Pedro de los Pinos'/>
    <tag k='location' v='underground'/>
  </way>
</osm>
